<?xml version="1.0" encoding="UTF-8" standalone="no"?>
<gpx version="1.1" creator="Trailforks.com" xmlns="http://www.topografix.com/GPX/1/1" xmlns:xsi="http://www.w3.org/2001/XMLSchema-instance" xmlns:gpxtpx="http://www.garmin.com/xmlschemas/TrackPointExtension/v1" xsi:schemaLocation="http://www.topografix.com/GPX/1/1 http://www.topografix.com/GPX/1/1/gpx.xsd http://www.garmin.com/xmlschemas/TrackPointExtension/v1 http://www.garmin.com/xmlschemas/TrackPointExtensionv1.xsd">
<metadata>
<name>Hammy&#039;s Return Trailforks Trail</name>
<link href="https://www.trailforks.com/">
<text>Trailforks</text>
</link>
</metadata>
<trk>
<name>
Hammy&#039;s Return
</name>
<link href="https://www.trailforks.com/trails/hammy-s-return/">
</link>
<trkseg>
<trkpt lat="-45.03409" lon="168.64797">
<ele>400</ele>
<time>2026-08-16T00:59:30-07:00</time>
</trkpt>
<trkpt lat="-45.03414" lon="168.6479">
<ele>399</ele>
<time>2026-08-16T00:59:31-07:00</time>
</trkpt>
<trkpt lat="-45.03419" lon="168.64784">
<ele>399</ele>
<time>2026-08-16T00:59:32-07:00</time>
</trkpt>
<trkpt lat="-45.03423" lon="168.64784">
<ele>399</ele>
<time>2026-08-16T00:59:33-07:00</time>
</trkpt>
<trkpt lat="-45.03427" lon="168.6479">
<ele>399</ele>
<time>2026-08-16T00:59:34-07:00</time>
</trkpt>
<trkpt lat="-45.03425" lon="168.64802">
<ele>400</ele>
<time>2026-08-16T00:59:35-07:00</time>
</trkpt>
<trkpt lat="-45.03419" lon="168.64818">
<ele>400</ele>
<time>2026-08-16T00:59:36-07:00</time>
</trkpt>
<trkpt lat="-45.03411" lon="168.64828">
<ele>399</ele>
<time>2026-08-16T00:59:37-07:00</time>
</trkpt>
<trkpt lat="-45.03404" lon="168.64844">
<ele>399</ele>
<time>2026-08-16T00:59:38-07:00</time>
</trkpt>
<trkpt lat="-45.03398" lon="168.64866">
<ele>408</ele>
<time>2026-08-16T00:59:39-07:00</time>
</trkpt>
<trkpt lat="-45.03384" lon="168.64906">
<ele>395</ele>
<time>2026-08-16T00:59:40-07:00</time>
</trkpt>
<trkpt lat="-45.0337" lon="168.64946">
<ele>403</ele>
<time>2026-08-16T00:59:41-07:00</time>
</trkpt>
<trkpt lat="-45.0336" lon="168.64969">
<ele>394</ele>
<time>2026-08-16T00:59:42-07:00</time>
</trkpt>
<trkpt lat="-45.03351" lon="168.64996">
<ele>386</ele>
<time>2026-08-16T00:59:43-07:00</time>
</trkpt>
<trkpt lat="-45.03338" lon="168.65017">
<ele>395</ele>
<time>2026-08-16T00:59:44-07:00</time>
</trkpt>
<trkpt lat="-45.03323" lon="168.65034">
<ele>395</ele>
<time>2026-08-16T00:59:45-07:00</time>
</trkpt>
<trkpt lat="-45.03316" lon="168.65056">
<ele>405</ele>
<time>2026-08-16T00:59:46-07:00</time>
</trkpt>
<trkpt lat="-45.03311" lon="168.65084">
<ele>398</ele>
<time>2026-08-16T00:59:47-07:00</time>
</trkpt>
<trkpt lat="-45.03307" lon="168.65105">
<ele>392</ele>
<time>2026-08-16T00:59:48-07:00</time>
</trkpt>
<trkpt lat="-45.03307" lon="168.65114">
<ele>392</ele>
<time>2026-08-16T00:59:49-07:00</time>
</trkpt>
<trkpt lat="-45.03309" lon="168.65121">
<ele>392</ele>
<time>2026-08-16T00:59:50-07:00</time>
</trkpt>
<trkpt lat="-45.03314" lon="168.65119">
<ele>392</ele>
<time>2026-08-16T00:59:51-07:00</time>
</trkpt>
<trkpt lat="-45.03318" lon="168.65112">
<ele>392</ele>
<time>2026-08-16T00:59:52-07:00</time>
</trkpt>
<trkpt lat="-45.03321" lon="168.65111">
<ele>379</ele>
<time>2026-08-16T00:59:53-07:00</time>
</trkpt>
<trkpt lat="-45.03322" lon="168.65115">
<ele>379</ele>
<time>2026-08-16T00:59:54-07:00</time>
</trkpt>
<trkpt lat="-45.03317" lon="168.65128">
<ele>383</ele>
<time>2026-08-16T00:59:55-07:00</time>
</trkpt>
<trkpt lat="-45.03307" lon="168.65143">
<ele>383</ele>
<time>2026-08-16T00:59:56-07:00</time>
</trkpt>
<trkpt lat="-45.03293" lon="168.65162">
<ele>375</ele>
<time>2026-08-16T00:59:57-07:00</time>
</trkpt>
<trkpt lat="-45.03278" lon="168.6518">
<ele>384</ele>
<time>2026-08-16T00:59:58-07:00</time>
</trkpt>
<trkpt lat="-45.03261" lon="168.65189">
<ele>386</ele>
<time>2026-08-16T00:59:59-07:00</time>
</trkpt>
<trkpt lat="-45.03247" lon="168.65194">
<ele>386</ele>
<time>2026-08-16T01:00:00-07:00</time>
</trkpt>
<trkpt lat="-45.03236" lon="168.65205">
<ele>394</ele>
<time>2026-08-16T01:00:01-07:00</time>
</trkpt>
<trkpt lat="-45.03225" lon="168.65231">
<ele>388</ele>
<time>2026-08-16T01:00:02-07:00</time>
</trkpt>
<trkpt lat="-45.03213" lon="168.65264">
<ele>371</ele>
<time>2026-08-16T01:00:03-07:00</time>
</trkpt>
<trkpt lat="-45.03194" lon="168.65288">
<ele>381</ele>
<time>2026-08-16T01:00:04-07:00</time>
</trkpt>
<trkpt lat="-45.03182" lon="168.65305">
<ele>371</ele>
<time>2026-08-16T01:00:05-07:00</time>
</trkpt>
<trkpt lat="-45.03162" lon="168.65321">
<ele>370</ele>
<time>2026-08-16T01:00:06-07:00</time>
</trkpt>
<trkpt lat="-45.03155" lon="168.65324">
<ele>370</ele>
<time>2026-08-16T01:00:07-07:00</time>
</trkpt>
<trkpt lat="-45.0314" lon="168.65326">
<ele>376</ele>
<time>2026-08-16T01:00:08-07:00</time>
</trkpt>
<trkpt lat="-45.03125" lon="168.65328">
<ele>383</ele>
<time>2026-08-16T01:00:09-07:00</time>
</trkpt>
<trkpt lat="-45.03121" lon="168.65328">
<ele>383</ele>
<time>2026-08-16T01:00:10-07:00</time>
</trkpt>
<trkpt lat="-45.03115" lon="168.65334">
<ele>383</ele>
<time>2026-08-16T01:00:11-07:00</time>
</trkpt>
<trkpt lat="-45.03091" lon="168.65367">
<ele>384</ele>
<time>2026-08-16T01:00:12-07:00</time>
</trkpt>
<trkpt lat="-45.03068" lon="168.65387">
<ele>386</ele>
<time>2026-08-16T01:00:13-07:00</time>
</trkpt>
<trkpt lat="-45.03056" lon="168.65398">
<ele>386</ele>
<time>2026-08-16T01:00:14-07:00</time>
</trkpt>
<trkpt lat="-45.03047" lon="168.65402">
<ele>386</ele>
<time>2026-08-16T01:00:15-07:00</time>
</trkpt>
<trkpt lat="-45.03026" lon="168.65407">
<ele>385</ele>
<time>2026-08-16T01:00:16-07:00</time>
</trkpt>
<trkpt lat="-45.03009" lon="168.65412">
<ele>400</ele>
<time>2026-08-16T01:00:17-07:00</time>
</trkpt>
<trkpt lat="-45.02995" lon="168.65428">
<ele>400</ele>
<time>2026-08-16T01:00:18-07:00</time>
</trkpt>
<trkpt lat="-45.02979" lon="168.65466">
<ele>383</ele>
<time>2026-08-16T01:00:19-07:00</time>
</trkpt>
<trkpt lat="-45.02955" lon="168.65489">
<ele>382</ele>
<time>2026-08-16T01:00:20-07:00</time>
</trkpt>
<trkpt lat="-45.02928" lon="168.65506">
<ele>400</ele>
<time>2026-08-16T01:00:21-07:00</time>
</trkpt>
<trkpt lat="-45.02911" lon="168.65512">
<ele>400</ele>
<time>2026-08-16T01:00:22-07:00</time>
</trkpt>
<trkpt lat="-45.02897" lon="168.65524">
<ele>384</ele>
<time>2026-08-16T01:00:23-07:00</time>
</trkpt>
<trkpt lat="-45.02877" lon="168.65534">
<ele>384</ele>
<time>2026-08-16T01:00:24-07:00</time>
</trkpt>
<trkpt lat="-45.02863" lon="168.65543">
<ele>364</ele>
<time>2026-08-16T01:00:25-07:00</time>
</trkpt>
<trkpt lat="-45.02858" lon="168.65572">
<ele>355</ele>
<time>2026-08-16T01:00:26-07:00</time>
</trkpt>
</trkseg>
</trk>
</gpx>
