<?xml version="1.0" encoding="UTF-8"?>
<gpx creator="Garmin Connect" version="1.1"
  xsi:schemaLocation="http://www.topografix.com/GPX/1/1 http://www.topografix.com/GPX/11.xsd"
  xmlns:ns3="http://www.garmin.com/xmlschemas/TrackPointExtension/v1"
  xmlns="http://www.topografix.com/GPX/1/1"
  xmlns:xsi="http://www.w3.org/2001/XMLSchema-instance" xmlns:ns2="http://www.garmin.com/xmlschemas/GpxExtensions/v3">
  <metadata>
    <link href="connect.garmin.com">
      <text>Garmin Connect</text>
    </link>
    <time>2026-10-06T22:33:24.000Z</time>
  </metadata>
  <trk>
    <name>Queenstown Mountain Biking</name>
    <type>mountain_biking</type>
    <trkseg>
      <trkpt lat="-45.034056007862091064453125" lon="168.64786458201706409454345703125">
        <ele>406.399993896484375</ele>
        <time>2026-10-06T22:33:24.000Z</time>
        <extensions>
          <ns3:TrackPointExtension>
            <ns3:hr>94</ns3:hr>
          </ns3:TrackPointExtension>
        </extensions>
      </trkpt>
      <trkpt lat="-45.03404905088245868682861328125" lon="168.64787422120571136474609375">
        <ele>406.399993896484375</ele>
        <time>2026-10-06T22:33:25.000Z</time>
        <extensions>
          <ns3:TrackPointExtension>
            <ns3:hr>96</ns3:hr>
          </ns3:TrackPointExtension>
        </extensions>
      </trkpt>
      <trkpt lat="-45.03404703922569751739501953125" lon="168.64788084290921688079833984375">
        <ele>406.399993896484375</ele>
        <time>2026-10-06T22:33:26.000Z</time>
        <extensions>
          <ns3:TrackPointExtension>
            <ns3:hr>99</ns3:hr>
          </ns3:TrackPointExtension>
        </extensions>
      </trkpt>
      <trkpt lat="-45.034073106944561004638671875" lon="168.6479397676885128021240234375">
        <ele>406.399993896484375</ele>
        <time>2026-10-06T22:33:32.000Z</time>
        <extensions>
          <ns3:TrackPointExtension>
            <ns3:hr>98</ns3:hr>
          </ns3:TrackPointExtension>
        </extensions>
      </trkpt>
      <trkpt lat="-45.03414745442569255828857421875" lon="168.64787447266280651092529296875">
        <ele>405.600006103515625</ele>
        <time>2026-10-06T22:33:34.000Z</time>
        <extensions>
          <ns3:TrackPointExtension>
            <ns3:hr>98</ns3:hr>
          </ns3:TrackPointExtension>
        </extensions>
      </trkpt>
      <trkpt lat="-45.03418399952352046966552734375" lon="168.64780104719102382659912109375">
        <ele>404.600006103515625</ele>
        <time>2026-10-06T22:33:35.000Z</time>
        <extensions>
          <ns3:TrackPointExtension>
            <ns3:hr>98</ns3:hr>
          </ns3:TrackPointExtension>
        </extensions>
      </trkpt>
      <trkpt lat="-45.0341775454580783843994140625" lon="168.6477372609078884124755859375">
        <ele>403.399993896484375</ele>
        <time>2026-10-06T22:33:36.000Z</time>
        <extensions>
          <ns3:TrackPointExtension>
            <ns3:hr>98</ns3:hr>
          </ns3:TrackPointExtension>
        </extensions>
      </trkpt>
      <trkpt lat="-45.0341805629432201385498046875" lon="168.64766794256865978240966796875">
        <ele>402.20001220703125</ele>
        <time>2026-10-06T22:33:37.000Z</time>
        <extensions>
          <ns3:TrackPointExtension>
            <ns3:hr>97</ns3:hr>
          </ns3:TrackPointExtension>
        </extensions>
      </trkpt>
      <trkpt lat="-45.03421626985073089599609375" lon="168.6476655118167400360107421875">
        <ele>401.79998779296875</ele>
        <time>2026-10-06T22:33:38.000Z</time>
        <extensions>
          <ns3:TrackPointExtension>
            <ns3:hr>97</ns3:hr>
          </ns3:TrackPointExtension>
        </extensions>
      </trkpt>
      <trkpt lat="-45.0342375598847866058349609375" lon="168.64771605469286441802978515625">
        <ele>401.79998779296875</ele>
        <time>2026-10-06T22:33:39.000Z</time>
        <extensions>
          <ns3:TrackPointExtension>
            <ns3:hr>96</ns3:hr>
          </ns3:TrackPointExtension>
        </extensions>
      </trkpt>
      <trkpt lat="-45.0342392362654209136962890625" lon="168.6478629894554615020751953125">
        <ele>400.600006103515625</ele>
        <time>2026-10-06T22:33:41.000Z</time>
        <extensions>
          <ns3:TrackPointExtension>
            <ns3:hr>95</ns3:hr>
          </ns3:TrackPointExtension>
        </extensions>
      </trkpt>
      <trkpt lat="-45.03422222100198268890380859375" lon="168.64794664084911346435546875">
        <ele>399.600006103515625</ele>
        <time>2026-10-06T22:33:42.000Z</time>
        <extensions>
          <ns3:TrackPointExtension>
            <ns3:hr>95</ns3:hr>
          </ns3:TrackPointExtension>
        </extensions>
      </trkpt>
      <trkpt lat="-45.03418651409447193145751953125" lon="168.648030795156955718994140625">
        <ele>398.399993896484375</ele>
        <time>2026-10-06T22:33:43.000Z</time>
        <extensions>
          <ns3:TrackPointExtension>
            <ns3:hr>95</ns3:hr>
          </ns3:TrackPointExtension>
        </extensions>
      </trkpt>
      <trkpt lat="-45.0341031141579151153564453125" lon="168.64818024449050426483154296875">
        <ele>397.600006103515625</ele>
        <time>2026-10-06T22:33:45.000Z</time>
        <extensions>
          <ns3:TrackPointExtension>
            <ns3:hr>96</ns3:hr>
          </ns3:TrackPointExtension>
        </extensions>
      </trkpt>
      <trkpt lat="-45.0340682454407215118408203125" lon="168.64823992364108562469482421875">
        <ele>397.399993896484375</ele>
        <time>2026-10-06T22:33:46.000Z</time>
        <extensions>
          <ns3:TrackPointExtension>
            <ns3:hr>96</ns3:hr>
          </ns3:TrackPointExtension>
        </extensions>
      </trkpt>
      <trkpt lat="-45.034032873809337615966796875" lon="168.64829608239233493804931640625">
        <ele>397.600006103515625</ele>
        <time>2026-10-06T22:33:48.000Z</time>
        <extensions>
          <ns3:TrackPointExtension>
            <ns3:hr>96</ns3:hr>
          </ns3:TrackPointExtension>
        </extensions>
      </trkpt>
      <trkpt lat="-45.0340266712009906768798828125" lon="168.64833866246044635772705078125">
        <ele>397.79998779296875</ele>
        <time>2026-10-06T22:33:49.000Z</time>
        <extensions>
          <ns3:TrackPointExtension>
            <ns3:hr>96</ns3:hr>
          </ns3:TrackPointExtension>
        </extensions>
      </trkpt>
      <trkpt lat="-45.03401652909815311431884765625" lon="168.6485251598060131072998046875">
        <ele>396.20001220703125</ele>
        <time>2026-10-06T22:33:51.000Z</time>
        <extensions>
          <ns3:TrackPointExtension>
            <ns3:hr>96</ns3:hr>
          </ns3:TrackPointExtension>
        </extensions>
      </trkpt>
      <trkpt lat="-45.0340042077004909515380859375" lon="168.64863202907145023345947265625">
        <ele>394.79998779296875</ele>
        <time>2026-10-06T22:33:52.000Z</time>
        <extensions>
          <ns3:TrackPointExtension>
            <ns3:hr>97</ns3:hr>
          </ns3:TrackPointExtension>
        </extensions>
      </trkpt>
      <trkpt lat="-45.03397227264940738677978515625" lon="168.64872423000633716583251953125">
        <ele>393</ele>
        <time>2026-10-06T22:33:53.000Z</time>
        <extensions>
          <ns3:TrackPointExtension>
            <ns3:hr>98</ns3:hr>
          </ns3:TrackPointExtension>
        </extensions>
      </trkpt>
      <trkpt lat="-45.03390169702470302581787109375" lon="168.648880384862422943115234375">
        <ele>392.399993896484375</ele>
        <time>2026-10-06T22:33:55.000Z</time>
        <extensions>
          <ns3:TrackPointExtension>
            <ns3:hr>99</ns3:hr>
          </ns3:TrackPointExtension>
        </extensions>
      </trkpt>
      <trkpt lat="-45.0338265113532543182373046875" lon="168.6490968056023120880126953125">
        <ele>393.79998779296875</ele>
        <time>2026-10-06T22:33:59.000Z</time>
        <extensions>
          <ns3:TrackPointExtension>
            <ns3:hr>98</ns3:hr>
          </ns3:TrackPointExtension>
        </extensions>
      </trkpt>
      <trkpt lat="-45.033804215490818023681640625" lon="168.649134524166584014892578125">
        <ele>394</ele>
        <time>2026-10-06T22:34:00.000Z</time>
        <extensions>
          <ns3:TrackPointExtension>
            <ns3:hr>98</ns3:hr>
          </ns3:TrackPointExtension>
        </extensions>
      </trkpt>
      <trkpt lat="-45.0337658263742923736572265625" lon="168.6493345163762569427490234375">
        <ele>393.79998779296875</ele>
        <time>2026-10-06T22:34:04.000Z</time>
        <extensions>
          <ns3:TrackPointExtension>
            <ns3:hr>98</ns3:hr>
          </ns3:TrackPointExtension>
        </extensions>
      </trkpt>
      <trkpt lat="-45.03368091769516468048095703125" lon="168.649485222995281219482421875">
        <ele>393.600006103515625</ele>
        <time>2026-10-06T22:34:08.000Z</time>
        <extensions>
          <ns3:TrackPointExtension>
            <ns3:hr>100</ns3:hr>
          </ns3:TrackPointExtension>
        </extensions>
      </trkpt>
      <trkpt lat="-45.03359676338732242584228515625" lon="168.649751432240009307861328125">
        <ele>393.399993896484375</ele>
        <time>2026-10-06T22:34:14.000Z</time>
        <extensions>
          <ns3:TrackPointExtension>
            <ns3:hr>100</ns3:hr>
          </ns3:TrackPointExtension>
        </extensions>
      </trkpt>
      <trkpt lat="-45.03353959880769252777099609375" lon="168.6499202437698841094970703125">
        <ele>394</ele>
        <time>2026-10-06T22:34:19.000Z</time>
        <extensions>
          <ns3:TrackPointExtension>
            <ns3:hr>100</ns3:hr>
          </ns3:TrackPointExtension>
        </extensions>
      </trkpt>
      <trkpt lat="-45.0334592163562774658203125" lon="168.6500486545264720916748046875">
        <ele>394.20001220703125</ele>
        <time>2026-10-06T22:34:24.000Z</time>
        <extensions>
          <ns3:TrackPointExtension>
            <ns3:hr>100</ns3:hr>
          </ns3:TrackPointExtension>
        </extensions>
      </trkpt>
      <trkpt lat="-45.03336056135594844818115234375" lon="168.65020447410643100738525390625">
        <ele>393.79998779296875</ele>
        <time>2026-10-06T22:34:29.000Z</time>
        <extensions>
          <ns3:TrackPointExtension>
            <ns3:hr>102</ns3:hr>
          </ns3:TrackPointExtension>
        </extensions>
      </trkpt>
      <trkpt lat="-45.0333282910287380218505859375" lon="168.65022459067404270172119140625">
        <ele>393.79998779296875</ele>
        <time>2026-10-06T22:34:30.000Z</time>
        <extensions>
          <ns3:TrackPointExtension>
            <ns3:hr>106</ns3:hr>
          </ns3:TrackPointExtension>
        </extensions>
      </trkpt>
      <trkpt lat="-45.03329501487314701080322265625" lon="168.65023364312946796417236328125">
        <ele>393.600006103515625</ele>
        <time>2026-10-06T22:34:31.000Z</time>
        <extensions>
          <ns3:TrackPointExtension>
            <ns3:hr>103</ns3:hr>
          </ns3:TrackPointExtension>
        </extensions>
      </trkpt>
      <trkpt lat="-45.03325846977531909942626953125" lon="168.65022894926369190216064453125">
        <ele>393.20001220703125</ele>
        <time>2026-10-06T22:34:32.000Z</time>
        <extensions>
          <ns3:TrackPointExtension>
            <ns3:hr>106</ns3:hr>
          </ns3:TrackPointExtension>
        </extensions>
      </trkpt>
      <trkpt lat="-45.03322510980069637298583984375" lon="168.65023481659591197967529296875">
        <ele>393</ele>
        <time>2026-10-06T22:34:33.000Z</time>
        <extensions>
          <ns3:TrackPointExtension>
            <ns3:hr>113</ns3:hr>
          </ns3:TrackPointExtension>
        </extensions>
      </trkpt>
      <trkpt lat="-45.0332012213766574859619140625" lon="168.65027387626469135284423828125">
        <ele>392.600006103515625</ele>
        <time>2026-10-06T22:34:34.000Z</time>
        <extensions>
          <ns3:TrackPointExtension>
            <ns3:hr>113</ns3:hr>
          </ns3:TrackPointExtension>
        </extensions>
      </trkpt>
      <trkpt lat="-45.0331821106374263763427734375" lon="168.65042760036885738372802734375">
        <ele>391.79998779296875</ele>
        <time>2026-10-06T22:34:36.000Z</time>
        <extensions>
          <ns3:TrackPointExtension>
            <ns3:hr>110</ns3:hr>
          </ns3:TrackPointExtension>
        </extensions>
      </trkpt>
      <trkpt lat="-45.0331628322601318359375" lon="168.6505016125738620758056640625">
        <ele>391</ele>
        <time>2026-10-06T22:34:37.000Z</time>
        <extensions>
          <ns3:TrackPointExtension>
            <ns3:hr>110</ns3:hr>
          </ns3:TrackPointExtension>
        </extensions>
      </trkpt>
      <trkpt lat="-45.033145733177661895751953125" lon="168.65057495422661304473876953125">
        <ele>390.399993896484375</ele>
        <time>2026-10-06T22:34:38.000Z</time>
        <extensions>
          <ns3:TrackPointExtension>
            <ns3:hr>110</ns3:hr>
          </ns3:TrackPointExtension>
        </extensions>
      </trkpt>
      <trkpt lat="-45.033162496984004974365234375" lon="168.65063597448170185089111328125">
        <ele>389.399993896484375</ele>
        <time>2026-10-06T22:34:39.000Z</time>
        <extensions>
          <ns3:TrackPointExtension>
            <ns3:hr>110</ns3:hr>
          </ns3:TrackPointExtension>
        </extensions>
      </trkpt>
      <trkpt lat="-45.033209435641765594482421875" lon="168.65067872218787670135498046875">
        <ele>388.79998779296875</ele>
        <time>2026-10-06T22:34:40.000Z</time>
        <extensions>
          <ns3:TrackPointExtension>
            <ns3:hr>110</ns3:hr>
          </ns3:TrackPointExtension>
        </extensions>
      </trkpt>
      <trkpt lat="-45.03325997851788997650146484375" lon="168.65073136053979396820068359375">
        <ele>387.79998779296875</ele>
        <time>2026-10-06T22:34:41.000Z</time>
        <extensions>
          <ns3:TrackPointExtension>
            <ns3:hr>110</ns3:hr>
          </ns3:TrackPointExtension>
        </extensions>
      </trkpt>
      <trkpt lat="-45.033296607434749603271484375" lon="168.65079942159354686737060546875">
        <ele>386.399993896484375</ele>
        <time>2026-10-06T22:34:42.000Z</time>
        <extensions>
          <ns3:TrackPointExtension>
            <ns3:hr>110</ns3:hr>
          </ns3:TrackPointExtension>
        </extensions>
      </trkpt>
      <trkpt lat="-45.033266432583332061767578125" lon="168.6509232223033905029296875">
        <ele>384.600006103515625</ele>
        <time>2026-10-06T22:34:43.000Z</time>
        <extensions>
          <ns3:TrackPointExtension>
            <ns3:hr>109</ns3:hr>
          </ns3:TrackPointExtension>
        </extensions>
      </trkpt>
      <trkpt lat="-45.0332290492951869964599609375" lon="168.651068396866321563720703125">
        <ele>382.20001220703125</ele>
        <time>2026-10-06T22:34:44.000Z</time>
        <extensions>
          <ns3:TrackPointExtension>
            <ns3:hr>108</ns3:hr>
          </ns3:TrackPointExtension>
        </extensions>
      </trkpt>
      <trkpt lat="-45.0331750698387622833251953125" lon="168.6512013338506221771240234375">
        <ele>380.600006103515625</ele>
        <time>2026-10-06T22:34:45.000Z</time>
        <extensions>
          <ns3:TrackPointExtension>
            <ns3:hr>108</ns3:hr>
          </ns3:TrackPointExtension>
        </extensions>
      </trkpt>
      <trkpt lat="-45.03309686668217182159423828125" lon="168.65129445679485797882080078125">
        <ele>379</ele>
        <time>2026-10-06T22:34:46.000Z</time>
        <extensions>
          <ns3:TrackPointExtension>
            <ns3:hr>106</ns3:hr>
          </ns3:TrackPointExtension>
        </extensions>
      </trkpt>
      <trkpt lat="-45.03301866352558135986328125" lon="168.65136109292507171630859375">
        <ele>376.79998779296875</ele>
        <time>2026-10-06T22:34:47.000Z</time>
        <extensions>
          <ns3:TrackPointExtension>
            <ns3:hr>104</ns3:hr>
          </ns3:TrackPointExtension>
        </extensions>
      </trkpt>
      <trkpt lat="-45.032957307994365692138671875" lon="168.6514382064342498779296875">
        <ele>375.399993896484375</ele>
        <time>2026-10-06T22:34:48.000Z</time>
        <extensions>
          <ns3:TrackPointExtension>
            <ns3:hr>103</ns3:hr>
          </ns3:TrackPointExtension>
        </extensions>
      </trkpt>
      <trkpt lat="-45.03290324471890926361083984375" lon="168.651528395712375640869140625">
        <ele>375</ele>
        <time>2026-10-06T22:34:49.000Z</time>
        <extensions>
          <ns3:TrackPointExtension>
            <ns3:hr>104</ns3:hr>
          </ns3:TrackPointExtension>
        </extensions>
      </trkpt>
      <trkpt lat="-45.03285932354629039764404296875" lon="168.65162503905594348907470703125">
        <ele>374.79998779296875</ele>
        <time>2026-10-06T22:34:50.000Z</time>
        <extensions>
          <ns3:TrackPointExtension>
            <ns3:hr>104</ns3:hr>
          </ns3:TrackPointExtension>
        </extensions>
      </trkpt>
      <trkpt lat="-45.032817162573337554931640625" lon="168.6517253704369068145751953125">
        <ele>374</ele>
        <time>2026-10-06T22:34:51.000Z</time>
        <extensions>
          <ns3:TrackPointExtension>
            <ns3:hr>104</ns3:hr>
          </ns3:TrackPointExtension>
        </extensions>
      </trkpt>
      <trkpt lat="-45.03275186754763126373291015625" lon="168.65180843509733676910400390625">
        <ele>373.20001220703125</ele>
        <time>2026-10-06T22:34:52.000Z</time>
        <extensions>
          <ns3:TrackPointExtension>
            <ns3:hr>104</ns3:hr>
          </ns3:TrackPointExtension>
        </extensions>
      </trkpt>
      <trkpt lat="-45.03267307765781879425048828125" lon="168.65182838402688503265380859375">
        <ele>372.79998779296875</ele>
        <time>2026-10-06T22:34:53.000Z</time>
        <extensions>
          <ns3:TrackPointExtension>
            <ns3:hr>104</ns3:hr>
          </ns3:TrackPointExtension>
        </extensions>
      </trkpt>
      <trkpt lat="-45.03251432441174983978271484375" lon="168.65187029354274272918701171875">
        <ele>371.79998779296875</ele>
        <time>2026-10-06T22:34:55.000Z</time>
        <extensions>
          <ns3:TrackPointExtension>
            <ns3:hr>104</ns3:hr>
          </ns3:TrackPointExtension>
        </extensions>
      </trkpt>
      <trkpt lat="-45.032409466803073883056640625" lon="168.65193047560751438140869140625">
        <ele>372.399993896484375</ele>
        <time>2026-10-06T22:34:57.000Z</time>
        <extensions>
          <ns3:TrackPointExtension>
            <ns3:hr>106</ns3:hr>
          </ns3:TrackPointExtension>
        </extensions>
      </trkpt>
      <trkpt lat="-45.03237803466618061065673828125" lon="168.6519540287554264068603515625">
        <ele>373.20001220703125</ele>
        <time>2026-10-06T22:34:58.000Z</time>
        <extensions>
          <ns3:TrackPointExtension>
            <ns3:hr>106</ns3:hr>
          </ns3:TrackPointExtension>
        </extensions>
      </trkpt>
      <trkpt lat="-45.032345093786716461181640625" lon="168.65200658328831195831298828125">
        <ele>374.600006103515625</ele>
        <time>2026-10-06T22:35:00.000Z</time>
        <extensions>
          <ns3:TrackPointExtension>
            <ns3:hr>108</ns3:hr>
          </ns3:TrackPointExtension>
        </extensions>
      </trkpt>
      <trkpt lat="-45.03233796916902065277099609375" lon="168.65203726105391979217529296875">
        <ele>375</ele>
        <time>2026-10-06T22:35:01.000Z</time>
        <extensions>
          <ns3:TrackPointExtension>
            <ns3:hr>118</ns3:hr>
          </ns3:TrackPointExtension>
        </extensions>
      </trkpt>
      <trkpt lat="-45.0323154218494892120361328125" lon="168.65208185277879238128662109375">
        <ele>375.399993896484375</ele>
        <time>2026-10-06T22:35:03.000Z</time>
        <extensions>
          <ns3:TrackPointExtension>
            <ns3:hr>121</ns3:hr>
          </ns3:TrackPointExtension>
        </extensions>
      </trkpt>
      <trkpt lat="-45.032305531203746795654296875" lon="168.65210540592670440673828125">
        <ele>375.600006103515625</ele>
        <time>2026-10-06T22:35:04.000Z</time>
        <extensions>
          <ns3:TrackPointExtension>
            <ns3:hr>122</ns3:hr>
          </ns3:TrackPointExtension>
        </extensions>
      </trkpt>
      <trkpt lat="-45.032296143472194671630859375" lon="168.65212895907461643218994140625">
        <ele>375.79998779296875</ele>
        <time>2026-10-06T22:35:05.000Z</time>
        <extensions>
          <ns3:TrackPointExtension>
            <ns3:hr>123</ns3:hr>
          </ns3:TrackPointExtension>
        </extensions>
      </trkpt>
      <trkpt lat="-45.03226538188755512237548828125" lon="168.65220875479280948638916015625">
        <ele>375.79998779296875</ele>
        <time>2026-10-06T22:35:08.000Z</time>
        <extensions>
          <ns3:TrackPointExtension>
            <ns3:hr>126</ns3:hr>
          </ns3:TrackPointExtension>
        </extensions>
      </trkpt>
      <trkpt lat="-45.03223353065550327301025390625" lon="168.65236097015440464019775390625">
        <ele>375</ele>
        <time>2026-10-06T22:35:11.000Z</time>
        <extensions>
          <ns3:TrackPointExtension>
            <ns3:hr>127</ns3:hr>
          </ns3:TrackPointExtension>
        </extensions>
      </trkpt>
      <trkpt lat="-45.03217787481844425201416015625" lon="168.65252391435205936431884765625">
        <ele>375.20001220703125</ele>
        <time>2026-10-06T22:35:15.000Z</time>
        <extensions>
          <ns3:TrackPointExtension>
            <ns3:hr>127</ns3:hr>
          </ns3:TrackPointExtension>
        </extensions>
      </trkpt>
      <trkpt lat="-45.03205516375601291656494140625" lon="168.65271870978176593780517578125">
        <ele>375.79998779296875</ele>
        <time>2026-10-06T22:35:22.000Z</time>
        <extensions>
          <ns3:TrackPointExtension>
            <ns3:hr>123</ns3:hr>
          </ns3:TrackPointExtension>
        </extensions>
      </trkpt>
      <trkpt lat="-45.031968913972377777099609375" lon="168.6528294347226619720458984375">
        <ele>376</ele>
        <time>2026-10-06T22:35:27.000Z</time>
        <extensions>
          <ns3:TrackPointExtension>
            <ns3:hr>122</ns3:hr>
          </ns3:TrackPointExtension>
        </extensions>
      </trkpt>
      <trkpt lat="-45.031836815178394317626953125" lon="168.652927838265895843505859375">
        <ele>375.79998779296875</ele>
        <time>2026-10-06T22:35:32.000Z</time>
        <extensions>
          <ns3:TrackPointExtension>
            <ns3:hr>120</ns3:hr>
          </ns3:TrackPointExtension>
        </extensions>
      </trkpt>
      <trkpt lat="-45.03171485848724842071533203125" lon="168.65301341749727725982666015625">
        <ele>376.600006103515625</ele>
        <time>2026-10-06T22:35:38.000Z</time>
        <extensions>
          <ns3:TrackPointExtension>
            <ns3:hr>122</ns3:hr>
          </ns3:TrackPointExtension>
        </extensions>
      </trkpt>
      <trkpt lat="-45.03170513547956943511962890625" lon="168.65303202532231807708740234375">
        <ele>376.600006103515625</ele>
        <time>2026-10-06T22:35:39.000Z</time>
        <extensions>
          <ns3:TrackPointExtension>
            <ns3:hr>122</ns3:hr>
          </ns3:TrackPointExtension>
        </extensions>
      </trkpt>
      <trkpt lat="-45.0316445343196392059326171875" lon="168.65318977274000644683837890625">
        <ele>376.399993896484375</ele>
        <time>2026-10-06T22:35:44.000Z</time>
        <extensions>
          <ns3:TrackPointExtension>
            <ns3:hr>124</ns3:hr>
          </ns3:TrackPointExtension>
        </extensions>
      </trkpt>
      <trkpt lat="-45.03155392594635486602783203125" lon="168.65323201753199100494384765625">
        <ele>376.399993896484375</ele>
        <time>2026-10-06T22:35:48.000Z</time>
        <extensions>
          <ns3:TrackPointExtension>
            <ns3:hr>124</ns3:hr>
          </ns3:TrackPointExtension>
        </extensions>
      </trkpt>
      <trkpt lat="-45.03150816075503826141357421875" lon="168.65321424789726734161376953125">
        <ele>376.399993896484375</ele>
        <time>2026-10-06T22:35:50.000Z</time>
        <extensions>
          <ns3:TrackPointExtension>
            <ns3:hr>121</ns3:hr>
          </ns3:TrackPointExtension>
        </extensions>
      </trkpt>
      <trkpt lat="-45.0314594618976116180419921875" lon="168.6532113142311573028564453125">
        <ele>376.600006103515625</ele>
        <time>2026-10-06T22:35:52.000Z</time>
        <extensions>
          <ns3:TrackPointExtension>
            <ns3:hr>121</ns3:hr>
          </ns3:TrackPointExtension>
        </extensions>
      </trkpt>
      <trkpt lat="-45.0312968529760837554931640625" lon="168.65322112105786800384521484375">
        <ele>376</ele>
        <time>2026-10-06T22:35:58.000Z</time>
        <extensions>
          <ns3:TrackPointExtension>
            <ns3:hr>122</ns3:hr>
          </ns3:TrackPointExtension>
        </extensions>
      </trkpt>
      <trkpt lat="-45.03119409084320068359375" lon="168.6532431654632091522216796875">
        <ele>376.600006103515625</ele>
        <time>2026-10-06T22:36:02.000Z</time>
        <extensions>
          <ns3:TrackPointExtension>
            <ns3:hr>120</ns3:hr>
          </ns3:TrackPointExtension>
        </extensions>
      </trkpt>
      <trkpt lat="-45.03116651438176631927490234375" lon="168.65326034836471080780029296875">
        <ele>376.600006103515625</ele>
        <time>2026-10-06T22:36:03.000Z</time>
        <extensions>
          <ns3:TrackPointExtension>
            <ns3:hr>120</ns3:hr>
          </ns3:TrackPointExtension>
        </extensions>
      </trkpt>
      <trkpt lat="-45.03109090961515903472900390625" lon="168.65336948074400424957275390625">
        <ele>375.79998779296875</ele>
        <time>2026-10-06T22:36:06.000Z</time>
        <extensions>
          <ns3:TrackPointExtension>
            <ns3:hr>117</ns3:hr>
          </ns3:TrackPointExtension>
        </extensions>
      </trkpt>
      <trkpt lat="-45.03103257156908512115478515625" lon="168.6534386314451694488525390625">
        <ele>375.600006103515625</ele>
        <time>2026-10-06T22:36:08.000Z</time>
        <extensions>
          <ns3:TrackPointExtension>
            <ns3:hr>116</ns3:hr>
          </ns3:TrackPointExtension>
        </extensions>
      </trkpt>
      <trkpt lat="-45.0309421308338642120361328125" lon="168.65357601083815097808837890625">
        <ele>376.399993896484375</ele>
        <time>2026-10-06T22:36:13.000Z</time>
        <extensions>
          <ns3:TrackPointExtension>
            <ns3:hr>113</ns3:hr>
          </ns3:TrackPointExtension>
        </extensions>
      </trkpt>
      <trkpt lat="-45.03092813305556774139404296875" lon="168.65359109826385974884033203125">
        <ele>376.79998779296875</ele>
        <time>2026-10-06T22:36:14.000Z</time>
        <extensions>
          <ns3:TrackPointExtension>
            <ns3:hr>112</ns3:hr>
          </ns3:TrackPointExtension>
        </extensions>
      </trkpt>
      <trkpt lat="-45.0308549590408802032470703125" lon="168.65365681238472461700439453125">
        <ele>378</ele>
        <time>2026-10-06T22:36:19.000Z</time>
        <extensions>
          <ns3:TrackPointExtension>
            <ns3:hr>114</ns3:hr>
          </ns3:TrackPointExtension>
        </extensions>
      </trkpt>
      <trkpt lat="-45.0308415479958057403564453125" lon="168.653670139610767364501953125">
        <ele>378.20001220703125</ele>
        <time>2026-10-06T22:36:20.000Z</time>
        <extensions>
          <ns3:TrackPointExtension>
            <ns3:hr>114</ns3:hr>
          </ns3:TrackPointExtension>
        </extensions>
      </trkpt>
      <trkpt lat="-45.03080156631767749786376953125" lon="168.65371330641210079193115234375">
        <ele>378.600006103515625</ele>
        <time>2026-10-06T22:36:22.000Z</time>
        <extensions>
          <ns3:TrackPointExtension>
            <ns3:hr>117</ns3:hr>
          </ns3:TrackPointExtension>
        </extensions>
      </trkpt>
      <trkpt lat="-45.03078144975006580352783203125" lon="168.65373593755066394805908203125">
        <ele>378.600006103515625</ele>
        <time>2026-10-06T22:36:23.000Z</time>
        <extensions>
          <ns3:TrackPointExtension>
            <ns3:hr>129</ns3:hr>
          </ns3:TrackPointExtension>
        </extensions>
      </trkpt>
      <trkpt lat="-45.03075781278312206268310546875" lon="168.65375471301376819610595703125">
        <ele>378.600006103515625</ele>
        <time>2026-10-06T22:36:24.000Z</time>
        <extensions>
          <ns3:TrackPointExtension>
            <ns3:hr>135</ns3:hr>
          </ns3:TrackPointExtension>
        </extensions>
      </trkpt>
      <trkpt lat="-45.03073618747293949127197265625" lon="168.65377784706652164459228515625">
        <ele>378.600006103515625</ele>
        <time>2026-10-06T22:36:25.000Z</time>
        <extensions>
          <ns3:TrackPointExtension>
            <ns3:hr>139</ns3:hr>
          </ns3:TrackPointExtension>
        </extensions>
      </trkpt>
      <trkpt lat="-45.0306911766529083251953125" lon="168.6538146436214447021484375">
        <ele>378.600006103515625</ele>
        <time>2026-10-06T22:36:27.000Z</time>
        <extensions>
          <ns3:TrackPointExtension>
            <ns3:hr>143</ns3:hr>
          </ns3:TrackPointExtension>
        </extensions>
      </trkpt>
      <trkpt lat="-45.03060023300349712371826171875" lon="168.65388446487486362457275390625">
        <ele>378.79998779296875</ele>
        <time>2026-10-06T22:36:31.000Z</time>
        <extensions>
          <ns3:TrackPointExtension>
            <ns3:hr>145</ns3:hr>
          </ns3:TrackPointExtension>
        </extensions>
      </trkpt>
      <trkpt lat="-45.03057123161852359771728515625" lon="168.65390474908053874969482421875">
        <ele>379</ele>
        <time>2026-10-06T22:36:33.000Z</time>
        <extensions>
          <ns3:TrackPointExtension>
            <ns3:hr>144</ns3:hr>
          </ns3:TrackPointExtension>
        </extensions>
      </trkpt>
      <trkpt lat="-45.03052555024623870849609375" lon="168.65393928252160549163818359375">
        <ele>379.20001220703125</ele>
        <time>2026-10-06T22:36:35.000Z</time>
        <extensions>
          <ns3:TrackPointExtension>
            <ns3:hr>144</ns3:hr>
          </ns3:TrackPointExtension>
        </extensions>
      </trkpt>
      <trkpt lat="-45.03049830906093120574951171875" lon="168.65396149456501007080078125">
        <ele>379.20001220703125</ele>
        <time>2026-10-06T22:36:36.000Z</time>
        <extensions>
          <ns3:TrackPointExtension>
            <ns3:hr>141</ns3:hr>
          </ns3:TrackPointExtension>
        </extensions>
      </trkpt>
      <trkpt lat="-45.0304268114268779754638671875" lon="168.65399912931025028228759765625">
        <ele>379</ele>
        <time>2026-10-06T22:36:39.000Z</time>
        <extensions>
          <ns3:TrackPointExtension>
            <ns3:hr>138</ns3:hr>
          </ns3:TrackPointExtension>
        </extensions>
      </trkpt>
      <trkpt lat="-45.0304090417921543121337890625" lon="168.65399778820574283599853515625">
        <ele>379.20001220703125</ele>
        <time>2026-10-06T22:36:40.000Z</time>
        <extensions>
          <ns3:TrackPointExtension>
            <ns3:hr>137</ns3:hr>
          </ns3:TrackPointExtension>
        </extensions>
      </trkpt>
      <trkpt lat="-45.03028792329132556915283203125" lon="168.65399368107318878173828125">
        <ele>379.20001220703125</ele>
        <time>2026-10-06T22:36:45.000Z</time>
        <extensions>
          <ns3:TrackPointExtension>
            <ns3:hr>135</ns3:hr>
          </ns3:TrackPointExtension>
        </extensions>
      </trkpt>
      <trkpt lat="-45.03012950532138347625732421875" lon="168.65397155284881591796875">
        <ele>378.600006103515625</ele>
        <time>2026-10-06T22:36:50.000Z</time>
        <extensions>
          <ns3:TrackPointExtension>
            <ns3:hr>135</ns3:hr>
          </ns3:TrackPointExtension>
        </extensions>
      </trkpt>
      <trkpt lat="-45.03008189611136913299560546875" lon="168.65396526642143726348876953125">
        <ele>379.399993896484375</ele>
        <time>2026-10-06T22:36:53.000Z</time>
        <extensions>
          <ns3:TrackPointExtension>
            <ns3:hr>133</ns3:hr>
          </ns3:TrackPointExtension>
        </extensions>
      </trkpt>
      <trkpt lat="-45.03006898798048496246337890625" lon="168.65397088229656219482421875">
        <ele>379.600006103515625</ele>
        <time>2026-10-06T22:36:54.000Z</time>
        <extensions>
          <ns3:TrackPointExtension>
            <ns3:hr>132</ns3:hr>
          </ns3:TrackPointExtension>
        </extensions>
      </trkpt>
      <trkpt lat="-45.03005675040185451507568359375" lon="168.65399711765348911285400390625">
        <ele>379.79998779296875</ele>
        <time>2026-10-06T22:36:56.000Z</time>
        <extensions>
          <ns3:TrackPointExtension>
            <ns3:hr>131</ns3:hr>
          </ns3:TrackPointExtension>
        </extensions>
      </trkpt>
      <trkpt lat="-45.030043087899684906005859375" lon="168.65403684787452220916748046875">
        <ele>380</ele>
        <time>2026-10-06T22:36:58.000Z</time>
        <extensions>
          <ns3:TrackPointExtension>
            <ns3:hr>131</ns3:hr>
          </ns3:TrackPointExtension>
        </extensions>
      </trkpt>
      <trkpt lat="-45.0300308503210544586181640625" lon="168.65406199358403682708740234375">
        <ele>380</ele>
        <time>2026-10-06T22:36:59.000Z</time>
        <extensions>
          <ns3:TrackPointExtension>
            <ns3:hr>130</ns3:hr>
          </ns3:TrackPointExtension>
        </extensions>
      </trkpt>
      <trkpt lat="-45.02996605820953845977783203125" lon="168.654230050742626190185546875">
        <ele>379.600006103515625</ele>
        <time>2026-10-06T22:37:04.000Z</time>
        <extensions>
          <ns3:TrackPointExtension>
            <ns3:hr>130</ns3:hr>
          </ns3:TrackPointExtension>
        </extensions>
      </trkpt>
      <trkpt lat="-45.02994175069034099578857421875" lon="168.6542449705302715301513671875">
        <ele>379.600006103515625</ele>
        <time>2026-10-06T22:37:05.000Z</time>
        <extensions>
          <ns3:TrackPointExtension>
            <ns3:hr>130</ns3:hr>
          </ns3:TrackPointExtension>
        </extensions>
      </trkpt>
      <trkpt lat="-45.0299168564379215240478515625" lon="168.65424371324479579925537109375">
        <ele>379.600006103515625</ele>
        <time>2026-10-06T22:37:06.000Z</time>
        <extensions>
          <ns3:TrackPointExtension>
            <ns3:hr>130</ns3:hr>
          </ns3:TrackPointExtension>
        </extensions>
      </trkpt>
      <trkpt lat="-45.02988525666296482086181640625" lon="168.65425896830856800079345703125">
        <ele>379.79998779296875</ele>
        <time>2026-10-06T22:37:08.000Z</time>
        <extensions>
          <ns3:TrackPointExtension>
            <ns3:hr>127</ns3:hr>
          </ns3:TrackPointExtension>
        </extensions>
      </trkpt>
      <trkpt lat="-45.02987637184560298919677734375" lon="168.65427992306649684906005859375">
        <ele>379.79998779296875</ele>
        <time>2026-10-06T22:37:09.000Z</time>
        <extensions>
          <ns3:TrackPointExtension>
            <ns3:hr>124</ns3:hr>
          </ns3:TrackPointExtension>
        </extensions>
      </trkpt>
      <trkpt lat="-45.02987352199852466583251953125" lon="168.65439760498702526092529296875">
        <ele>379.399993896484375</ele>
        <time>2026-10-06T22:37:11.000Z</time>
        <extensions>
          <ns3:TrackPointExtension>
            <ns3:hr>121</ns3:hr>
          </ns3:TrackPointExtension>
        </extensions>
      </trkpt>
      <trkpt lat="-45.0298544950783252716064453125" lon="168.65447320975363254547119140625">
        <ele>378.79998779296875</ele>
        <time>2026-10-06T22:37:12.000Z</time>
        <extensions>
          <ns3:TrackPointExtension>
            <ns3:hr>120</ns3:hr>
          </ns3:TrackPointExtension>
        </extensions>
      </trkpt>
      <trkpt lat="-45.029824487864971160888671875" lon="168.6545406840741634368896484375">
        <ele>378.20001220703125</ele>
        <time>2026-10-06T22:37:13.000Z</time>
        <extensions>
          <ns3:TrackPointExtension>
            <ns3:hr>119</ns3:hr>
          </ns3:TrackPointExtension>
        </extensions>
      </trkpt>
      <trkpt lat="-45.0297901220619678497314453125" lon="168.65460178814828395843505859375">
        <ele>377.600006103515625</ele>
        <time>2026-10-06T22:37:14.000Z</time>
        <extensions>
          <ns3:TrackPointExtension>
            <ns3:hr>118</ns3:hr>
          </ns3:TrackPointExtension>
        </extensions>
      </trkpt>
      <trkpt lat="-45.02975785173475742340087890625" lon="168.6546405963599681854248046875">
        <ele>377.20001220703125</ele>
        <time>2026-10-06T22:37:15.000Z</time>
        <extensions>
          <ns3:TrackPointExtension>
            <ns3:hr>118</ns3:hr>
          </ns3:TrackPointExtension>
        </extensions>
      </trkpt>
      <trkpt lat="-45.0296409241855144500732421875" lon="168.65476615726947784423828125">
        <ele>376.600006103515625</ele>
        <time>2026-10-06T22:37:18.000Z</time>
        <extensions>
          <ns3:TrackPointExtension>
            <ns3:hr>117</ns3:hr>
          </ns3:TrackPointExtension>
        </extensions>
      </trkpt>
      <trkpt lat="-45.0296087376773357391357421875" lon="168.65481183864176273345947265625">
        <ele>376.600006103515625</ele>
        <time>2026-10-06T22:37:19.000Z</time>
        <extensions>
          <ns3:TrackPointExtension>
            <ns3:hr>115</ns3:hr>
          </ns3:TrackPointExtension>
        </extensions>
      </trkpt>
      <trkpt lat="-45.0295607931911945343017578125" lon="168.65486816503107547760009765625">
        <ele>376</ele>
        <time>2026-10-06T22:37:20.000Z</time>
        <extensions>
          <ns3:TrackPointExtension>
            <ns3:hr>113</ns3:hr>
          </ns3:TrackPointExtension>
        </extensions>
      </trkpt>
      <trkpt lat="-45.02950740046799182891845703125" lon="168.6549170315265655517578125">
        <ele>375.399993896484375</ele>
        <time>2026-10-06T22:37:21.000Z</time>
        <extensions>
          <ns3:TrackPointExtension>
            <ns3:hr>112</ns3:hr>
          </ns3:TrackPointExtension>
        </extensions>
      </trkpt>
      <trkpt lat="-45.02945258282124996185302734375" lon="168.65494854748249053955078125">
        <ele>374.79998779296875</ele>
        <time>2026-10-06T22:37:22.000Z</time>
        <extensions>
          <ns3:TrackPointExtension>
            <ns3:hr>110</ns3:hr>
          </ns3:TrackPointExtension>
        </extensions>
      </trkpt>
      <trkpt lat="-45.0293395109474658966064453125" lon="168.65501635707914829254150390625">
        <ele>373.79998779296875</ele>
        <time>2026-10-06T22:37:24.000Z</time>
        <extensions>
          <ns3:TrackPointExtension>
            <ns3:hr>108</ns3:hr>
          </ns3:TrackPointExtension>
        </extensions>
      </trkpt>
      <trkpt lat="-45.029279999434947967529296875" lon="168.65499204955995082855224609375">
        <ele>373</ele>
        <time>2026-10-06T22:37:25.000Z</time>
        <extensions>
          <ns3:TrackPointExtension>
            <ns3:hr>107</ns3:hr>
          </ns3:TrackPointExtension>
        </extensions>
      </trkpt>
      <trkpt lat="-45.02922878600656986236572265625" lon="168.65500445477664470672607421875">
        <ele>372.600006103515625</ele>
        <time>2026-10-06T22:37:26.000Z</time>
        <extensions>
          <ns3:TrackPointExtension>
            <ns3:hr>107</ns3:hr>
          </ns3:TrackPointExtension>
        </extensions>
      </trkpt>
      <trkpt lat="-45.02918520011007785797119140625" lon="168.65505357272922992706298828125">
        <ele>371.79998779296875</ele>
        <time>2026-10-06T22:37:27.000Z</time>
        <extensions>
          <ns3:TrackPointExtension>
            <ns3:hr>107</ns3:hr>
          </ns3:TrackPointExtension>
        </extensions>
      </trkpt>
      <trkpt lat="-45.02913842909038066864013671875" lon="168.655086345970630645751953125">
        <ele>371.399993896484375</ele>
        <time>2026-10-06T22:37:28.000Z</time>
        <extensions>
          <ns3:TrackPointExtension>
            <ns3:hr>107</ns3:hr>
          </ns3:TrackPointExtension>
        </extensions>
      </trkpt>
      <trkpt lat="-45.0290840305387973785400390625" lon="168.65511761046946048736572265625">
        <ele>371.20001220703125</ele>
        <time>2026-10-06T22:37:29.000Z</time>
        <extensions>
          <ns3:TrackPointExtension>
            <ns3:hr>108</ns3:hr>
          </ns3:TrackPointExtension>
        </extensions>
      </trkpt>
      <trkpt lat="-45.02894698642194271087646484375" lon="168.6552189476788043975830078125">
        <ele>369.600006103515625</ele>
        <time>2026-10-06T22:37:31.000Z</time>
        <extensions>
          <ns3:TrackPointExtension>
            <ns3:hr>109</ns3:hr>
          </ns3:TrackPointExtension>
        </extensions>
      </trkpt>
      <trkpt lat="-45.02886819653213024139404296875" lon="168.65528407506644725799560546875">
        <ele>368.399993896484375</ele>
        <time>2026-10-06T22:37:32.000Z</time>
        <extensions>
          <ns3:TrackPointExtension>
            <ns3:hr>110</ns3:hr>
          </ns3:TrackPointExtension>
        </extensions>
      </trkpt>
      <trkpt lat="-45.028785802423954010009765625" lon="168.65535280667245388031005859375">
        <ele>366.399993896484375</ele>
        <time>2026-10-06T22:37:33.000Z</time>
        <extensions>
          <ns3:TrackPointExtension>
            <ns3:hr>110</ns3:hr>
          </ns3:TrackPointExtension>
        </extensions>
      </trkpt>
      <trkpt lat="-45.0287090241909027099609375" lon="168.6553929559886455535888671875">
        <ele>364.399993896484375</ele>
        <time>2026-10-06T22:37:34.000Z</time>
        <extensions>
          <ns3:TrackPointExtension>
            <ns3:hr>110</ns3:hr>
          </ns3:TrackPointExtension>
        </extensions>
      </trkpt>
      <trkpt lat="-45.02864222042262554168701171875" lon="168.655397482216358184814453125">
        <ele>363.20001220703125</ele>
        <time>2026-10-06T22:37:35.000Z</time>
        <extensions>
          <ns3:TrackPointExtension>
            <ns3:hr>110</ns3:hr>
          </ns3:TrackPointExtension>
        </extensions>
      </trkpt>
      <trkpt lat="-45.02855136059224605560302734375" lon="168.65544567815959453582763671875">
        <ele>362.20001220703125</ele>
        <time>2026-10-06T22:37:37.000Z</time>
        <extensions>
          <ns3:TrackPointExtension>
            <ns3:hr>109</ns3:hr>
          </ns3:TrackPointExtension>
        </extensions>
      </trkpt>
      <trkpt lat="-45.02855655737221240997314453125" lon="168.65550703369081020355224609375">
        <ele>362.20001220703125</ele>
        <time>2026-10-06T22:37:38.000Z</time>
        <extensions>
          <ns3:TrackPointExtension>
            <ns3:hr>108</ns3:hr>
          </ns3:TrackPointExtension>
        </extensions>
      </trkpt>
      <trkpt lat="-45.028629563748836517333984375" lon="168.655636198818683624267578125">
        <ele>361.20001220703125</ele>
        <time>2026-10-06T22:37:40.000Z</time>
        <extensions>
          <ns3:TrackPointExtension>
            <ns3:hr>108</ns3:hr>
          </ns3:TrackPointExtension>
        </extensions>
      </trkpt>
      <trkpt lat="-45.028677172958850860595703125" lon="168.65568171255290508270263671875">
        <ele>360.20001220703125</ele>
        <time>2026-10-06T22:37:41.000Z</time>
        <extensions>
          <ns3:TrackPointExtension>
            <ns3:hr>109</ns3:hr>
          </ns3:TrackPointExtension>
        </extensions>
      </trkpt>
      <trkpt lat="-45.0287182442843914031982421875" lon="168.6557243764400482177734375">
        <ele>358.79998779296875</ele>
        <time>2026-10-06T22:37:42.000Z</time>
        <extensions>
          <ns3:TrackPointExtension>
            <ns3:hr>109</ns3:hr>
          </ns3:TrackPointExtension>
        </extensions>
      </trkpt>
      <trkpt lat="-45.02870977856218814849853515625" lon="168.65576301701366901397705078125">
        <ele>357.600006103515625</ele>
        <time>2026-10-06T22:37:43.000Z</time>
        <extensions>
          <ns3:TrackPointExtension>
            <ns3:hr>110</ns3:hr>
          </ns3:TrackPointExtension>
        </extensions>
      </trkpt>
      <trkpt lat="-45.02868580631911754608154296875" lon="168.65575865842401981353759765625">
        <ele>357</ele>
        <time>2026-10-06T22:37:44.000Z</time>
        <extensions>
          <ns3:TrackPointExtension>
            <ns3:hr>110</ns3:hr>
          </ns3:TrackPointExtension>
        </extensions>
      </trkpt>
      <trkpt lat="-45.02867457456886768341064453125" lon="168.65574005059897899627685546875">
        <ele>356.600006103515625</ele>
        <time>2026-10-06T22:37:45.000Z</time>
        <extensions>
          <ns3:TrackPointExtension>
            <ns3:hr>110</ns3:hr>
          </ns3:TrackPointExtension>
        </extensions>
      </trkpt>
      <trkpt lat="-45.0285931862890720367431640625" lon="168.6556806229054927825927734375">
        <ele>355.79998779296875</ele>
        <time>2026-10-06T22:37:48.000Z</time>
        <extensions>
          <ns3:TrackPointExtension>
            <ns3:hr>110</ns3:hr>
          </ns3:TrackPointExtension>
        </extensions>
      </trkpt>
      <trkpt lat="-45.02855773083865642547607421875" lon="168.65566226653754711151123046875">
        <ele>355.399993896484375</ele>
        <time>2026-10-06T22:37:49.000Z</time>
        <extensions>
          <ns3:TrackPointExtension>
            <ns3:hr>110</ns3:hr>
          </ns3:TrackPointExtension>
        </extensions>
      </trkpt>
      <trkpt lat="-45.02850945107638835906982421875" lon="168.6556548066437244415283203125">
        <ele>354.399993896484375</ele>
        <time>2026-10-06T22:37:51.000Z</time>
        <extensions>
          <ns3:TrackPointExtension>
            <ns3:hr>111</ns3:hr>
          </ns3:TrackPointExtension>
        </extensions>
      </trkpt>
      <trkpt lat="-45.02851481549441814422607421875" lon="168.655663020908832550048828125">
        <ele>354.20001220703125</ele>
        <time>2026-10-06T22:37:52.000Z</time>
        <extensions>
          <ns3:TrackPointExtension>
            <ns3:hr>112</ns3:hr>
          </ns3:TrackPointExtension>
        </extensions>
      </trkpt>
      <trkpt lat="-45.028538368642330169677734375" lon="168.65570551715791225433349609375">
        <ele>354.399993896484375</ele>
        <time>2026-10-06T22:37:55.000Z</time>
        <extensions>
          <ns3:TrackPointExtension>
            <ns3:hr>112</ns3:hr>
          </ns3:TrackPointExtension>
        </extensions>
      </trkpt>
      <trkpt lat="-45.02853224985301494598388671875" lon="168.655730746686458587646484375">
        <ele>354.399993896484375</ele>
        <time>2026-10-06T22:37:56.000Z</time>
        <extensions>
          <ns3:TrackPointExtension>
            <ns3:hr>111</ns3:hr>
          </ns3:TrackPointExtension>
        </extensions>
      </trkpt>
      <trkpt lat="-45.02850928343832492828369140625" lon="168.6557731591165065765380859375">
        <ele>354.399993896484375</ele>
        <time>2026-10-06T22:37:58.000Z</time>
        <extensions>
          <ns3:TrackPointExtension>
            <ns3:hr>112</ns3:hr>
          </ns3:TrackPointExtension>
        </extensions>
      </trkpt>
      <trkpt lat="-45.02846938557922840118408203125" lon="168.65577156655490398406982421875">
        <ele>354</ele>
        <time>2026-10-06T22:38:00.000Z</time>
        <extensions>
          <ns3:TrackPointExtension>
            <ns3:hr>111</ns3:hr>
          </ns3:TrackPointExtension>
        </extensions>
      </trkpt>
      <trkpt lat="-45.0283900089561939239501953125" lon="168.6557332612574100494384765625">
        <ele>354</ele>
        <time>2026-10-06T22:38:04.000Z</time>
        <extensions>
          <ns3:TrackPointExtension>
            <ns3:hr>108</ns3:hr>
          </ns3:TrackPointExtension>
        </extensions>
      </trkpt>
      <trkpt lat="-45.02836327068507671356201171875" lon="168.65572513081133365631103515625">
        <ele>354</ele>
        <time>2026-10-06T22:38:05.000Z</time>
        <extensions>
          <ns3:TrackPointExtension>
            <ns3:hr>107</ns3:hr>
          </ns3:TrackPointExtension>
        </extensions>
      </trkpt>
      <trkpt lat="-45.0282317586243152618408203125" lon="168.655713982880115509033203125">
        <ele>353.79998779296875</ele>
        <time>2026-10-06T22:38:09.000Z</time>
        <extensions>
          <ns3:TrackPointExtension>
            <ns3:hr>104</ns3:hr>
          </ns3:TrackPointExtension>
        </extensions>
      </trkpt>
      <trkpt lat="-45.02819932065904140472412109375" lon="168.6557201854884624481201171875">
        <ele>353.600006103515625</ele>
        <time>2026-10-06T22:38:10.000Z</time>
        <extensions>
          <ns3:TrackPointExtension>
            <ns3:hr>101</ns3:hr>
          </ns3:TrackPointExtension>
        </extensions>
      </trkpt>
      <trkpt lat="-45.0281781144440174102783203125" lon="168.65573585964739322662353515625">
        <ele>353.600006103515625</ele>
        <time>2026-10-06T22:38:11.000Z</time>
        <extensions>
          <ns3:TrackPointExtension>
            <ns3:hr>100</ns3:hr>
          </ns3:TrackPointExtension>
        </extensions>
      </trkpt>
      <trkpt lat="-45.028152130544185638427734375" lon="168.65578673779964447021484375">
        <ele>353.600006103515625</ele>
        <time>2026-10-06T22:38:13.000Z</time>
        <extensions>
          <ns3:TrackPointExtension>
            <ns3:hr>97</ns3:hr>
          </ns3:TrackPointExtension>
        </extensions>
      </trkpt>
      <trkpt lat="-45.0281536392867565155029296875" lon="168.6558338440954685211181640625">
        <ele>353.79998779296875</ele>
        <time>2026-10-06T22:38:15.000Z</time>
        <extensions>
          <ns3:TrackPointExtension>
            <ns3:hr>94</ns3:hr>
          </ns3:TrackPointExtension>
        </extensions>
      </trkpt>
      <trkpt lat="-45.0281538069248199462890625" lon="168.655857481062412261962890625">
        <ele>354</ele>
        <time>2026-10-06T22:38:16.000Z</time>
        <extensions>
          <ns3:TrackPointExtension>
            <ns3:hr>92</ns3:hr>
          </ns3:TrackPointExtension>
        </extensions>
      </trkpt>
      <trkpt lat="-45.0281522981822490692138671875" lon="168.6559277214109897613525390625">
        <ele>353.79998779296875</ele>
        <time>2026-10-06T22:38:20.000Z</time>
        <extensions>
          <ns3:TrackPointExtension>
            <ns3:hr>89</ns3:hr>
          </ns3:TrackPointExtension>
        </extensions>
      </trkpt>
      <trkpt lat="-45.02815045416355133056640625" lon="168.655911125242710113525390625">
        <ele>354</ele>
        <time>2026-10-06T22:38:21.000Z</time>
        <extensions>
          <ns3:TrackPointExtension>
            <ns3:hr>88</ns3:hr>
          </ns3:TrackPointExtension>
        </extensions>
      </trkpt>
      <trkpt lat="-45.02814249135553836822509765625" lon="168.6559247039258480072021484375">
        <ele>354.20001220703125</ele>
        <time>2026-10-06T22:38:24.000Z</time>
        <extensions>
          <ns3:TrackPointExtension>
            <ns3:hr>90</ns3:hr>
          </ns3:TrackPointExtension>
        </extensions>
      </trkpt>
    </trkseg>
  </trk>
</gpx>
