<?xml version="1.0" encoding="UTF-8"?>
<gpx creator="Garmin Connect" version="1.1"
  xsi:schemaLocation="http://www.topografix.com/GPX/1/1 http://www.topografix.com/GPX/11.xsd"
  xmlns:ns3="http://www.garmin.com/xmlschemas/TrackPointExtension/v1"
  xmlns="http://www.topografix.com/GPX/1/1"
  xmlns:xsi="http://www.w3.org/2001/XMLSchema-instance" xmlns:ns2="http://www.garmin.com/xmlschemas/GpxExtensions/v3">
  <metadata>
    <link href="connect.garmin.com">
      <text>Garmin Connect</text>
    </link>
    <time>2026-10-06T22:26:58.000Z</time>
  </metadata>
  <trk>
    <name>Queenstown Mountain Biking</name>
    <type>mountain_biking</type>
    <trkseg>
      <trkpt lat="-45.03079234622418880462646484375" lon="168.64007326774299144744873046875">
        <ele>586</ele>
        <time>2026-10-06T22:26:58.000Z</time>
        <extensions>
          <ns3:TrackPointExtension>
            <ns3:hr>97</ns3:hr>
          </ns3:TrackPointExtension>
        </extensions>
      </trkpt>
      <trkpt lat="-45.03079754300415515899658203125" lon="168.64006203599274158477783203125">
        <ele>586</ele>
        <time>2026-10-06T22:26:59.000Z</time>
        <extensions>
          <ns3:TrackPointExtension>
            <ns3:hr>97</ns3:hr>
          </ns3:TrackPointExtension>
        </extensions>
      </trkpt>
      <trkpt lat="-45.03084112890064716339111328125" lon="168.6401342041790485382080078125">
        <ele>586</ele>
        <time>2026-10-06T22:27:06.000Z</time>
        <extensions>
          <ns3:TrackPointExtension>
            <ns3:hr>96</ns3:hr>
          </ns3:TrackPointExtension>
        </extensions>
      </trkpt>
      <trkpt lat="-45.030933916568756103515625" lon="168.640084750950336456298828125">
        <ele>585</ele>
        <time>2026-10-06T22:27:09.000Z</time>
        <extensions>
          <ns3:TrackPointExtension>
            <ns3:hr>97</ns3:hr>
          </ns3:TrackPointExtension>
        </extensions>
      </trkpt>
      <trkpt lat="-45.030939616262912750244140625" lon="168.6400336213409900665283203125">
        <ele>584.5999755859375</ele>
        <time>2026-10-06T22:27:10.000Z</time>
        <extensions>
          <ns3:TrackPointExtension>
            <ns3:hr>97</ns3:hr>
          </ns3:TrackPointExtension>
        </extensions>
      </trkpt>
      <trkpt lat="-45.03089946694672107696533203125" lon="168.63992742262780666351318359375">
        <ele>583.79998779296875</ele>
        <time>2026-10-06T22:27:12.000Z</time>
        <extensions>
          <ns3:TrackPointExtension>
            <ns3:hr>101</ns3:hr>
          </ns3:TrackPointExtension>
        </extensions>
      </trkpt>
      <trkpt lat="-45.030865184962749481201171875" lon="168.639880903065204620361328125">
        <ele>583.20001220703125</ele>
        <time>2026-10-06T22:27:13.000Z</time>
        <extensions>
          <ns3:TrackPointExtension>
            <ns3:hr>101</ns3:hr>
          </ns3:TrackPointExtension>
        </extensions>
      </trkpt>
      <trkpt lat="-45.03082369454205036163330078125" lon="168.63983823917806148529052734375">
        <ele>582.79998779296875</ele>
        <time>2026-10-06T22:27:14.000Z</time>
        <extensions>
          <ns3:TrackPointExtension>
            <ns3:hr>101</ns3:hr>
          </ns3:TrackPointExtension>
        </extensions>
      </trkpt>
      <trkpt lat="-45.03070869483053684234619140625" lon="168.63982222974300384521484375">
        <ele>581.79998779296875</ele>
        <time>2026-10-06T22:27:16.000Z</time>
        <extensions>
          <ns3:TrackPointExtension>
            <ns3:hr>100</ns3:hr>
          </ns3:TrackPointExtension>
        </extensions>
      </trkpt>
      <trkpt lat="-45.03065186552703380584716796875" lon="168.639817200601100921630859375">
        <ele>581</ele>
        <time>2026-10-06T22:27:17.000Z</time>
        <extensions>
          <ns3:TrackPointExtension>
            <ns3:hr>100</ns3:hr>
          </ns3:TrackPointExtension>
        </extensions>
      </trkpt>
      <trkpt lat="-45.03058263100683689117431640625" lon="168.6398267559707164764404296875">
        <ele>579.79998779296875</ele>
        <time>2026-10-06T22:27:18.000Z</time>
        <extensions>
          <ns3:TrackPointExtension>
            <ns3:hr>99</ns3:hr>
          </ns3:TrackPointExtension>
        </extensions>
      </trkpt>
      <trkpt lat="-45.0304848141968250274658203125" lon="168.63979004323482513427734375">
        <ele>578.5999755859375</ele>
        <time>2026-10-06T22:27:20.000Z</time>
        <extensions>
          <ns3:TrackPointExtension>
            <ns3:hr>98</ns3:hr>
          </ns3:TrackPointExtension>
        </extensions>
      </trkpt>
      <trkpt lat="-45.0305558927357196807861328125" lon="168.639709241688251495361328125">
        <ele>577.20001220703125</ele>
        <time>2026-10-06T22:27:22.000Z</time>
        <extensions>
          <ns3:TrackPointExtension>
            <ns3:hr>96</ns3:hr>
          </ns3:TrackPointExtension>
        </extensions>
      </trkpt>
      <trkpt lat="-45.0305951200425624847412109375" lon="168.6395935714244842529296875">
        <ele>576</ele>
        <time>2026-10-06T22:27:24.000Z</time>
        <extensions>
          <ns3:TrackPointExtension>
            <ns3:hr>96</ns3:hr>
          </ns3:TrackPointExtension>
        </extensions>
      </trkpt>
      <trkpt lat="-45.03057793714106082916259765625" lon="168.63951134495437145233154296875">
        <ele>575.4000244140625</ele>
        <time>2026-10-06T22:27:25.000Z</time>
        <extensions>
          <ns3:TrackPointExtension>
            <ns3:hr>96</ns3:hr>
          </ns3:TrackPointExtension>
        </extensions>
      </trkpt>
      <trkpt lat="-45.0305538810789585113525390625" lon="168.63948452286422252655029296875">
        <ele>574.5999755859375</ele>
        <time>2026-10-06T22:27:26.000Z</time>
        <extensions>
          <ns3:TrackPointExtension>
            <ns3:hr>96</ns3:hr>
          </ns3:TrackPointExtension>
        </extensions>
      </trkpt>
      <trkpt lat="-45.03055949695408344268798828125" lon="168.63942400552332401275634765625">
        <ele>574.20001220703125</ele>
        <time>2026-10-06T22:27:28.000Z</time>
        <extensions>
          <ns3:TrackPointExtension>
            <ns3:hr>98</ns3:hr>
          </ns3:TrackPointExtension>
        </extensions>
      </trkpt>
      <trkpt lat="-45.03063929267227649688720703125" lon="168.63947127945721149444580078125">
        <ele>573.5999755859375</ele>
        <time>2026-10-06T22:27:30.000Z</time>
        <extensions>
          <ns3:TrackPointExtension>
            <ns3:hr>102</ns3:hr>
          </ns3:TrackPointExtension>
        </extensions>
      </trkpt>
      <trkpt lat="-45.03066837787628173828125" lon="168.63952492363750934600830078125">
        <ele>573</ele>
        <time>2026-10-06T22:27:31.000Z</time>
        <extensions>
          <ns3:TrackPointExtension>
            <ns3:hr>104</ns3:hr>
          </ns3:TrackPointExtension>
        </extensions>
      </trkpt>
      <trkpt lat="-45.030700899660587310791015625" lon="168.63954621367156505584716796875">
        <ele>572.20001220703125</ele>
        <time>2026-10-06T22:27:32.000Z</time>
        <extensions>
          <ns3:TrackPointExtension>
            <ns3:hr>107</ns3:hr>
          </ns3:TrackPointExtension>
        </extensions>
      </trkpt>
      <trkpt lat="-45.0307413004338741302490234375" lon="168.639550320804119110107421875">
        <ele>571.79998779296875</ele>
        <time>2026-10-06T22:27:33.000Z</time>
        <extensions>
          <ns3:TrackPointExtension>
            <ns3:hr>108</ns3:hr>
          </ns3:TrackPointExtension>
        </extensions>
      </trkpt>
      <trkpt lat="-45.0307936035096645355224609375" lon="168.63956071436405181884765625">
        <ele>571.79998779296875</ele>
        <time>2026-10-06T22:27:34.000Z</time>
        <extensions>
          <ns3:TrackPointExtension>
            <ns3:hr>109</ns3:hr>
          </ns3:TrackPointExtension>
        </extensions>
      </trkpt>
      <trkpt lat="-45.0309578888118267059326171875" lon="168.63960807211697101593017578125">
        <ele>570.79998779296875</ele>
        <time>2026-10-06T22:27:37.000Z</time>
        <extensions>
          <ns3:TrackPointExtension>
            <ns3:hr>111</ns3:hr>
          </ns3:TrackPointExtension>
        </extensions>
      </trkpt>
      <trkpt lat="-45.0310128740966320037841796875" lon="168.6396567709743976593017578125">
        <ele>569.79998779296875</ele>
        <time>2026-10-06T22:27:38.000Z</time>
        <extensions>
          <ns3:TrackPointExtension>
            <ns3:hr>112</ns3:hr>
          </ns3:TrackPointExtension>
        </extensions>
      </trkpt>
      <trkpt lat="-45.0310494191944599151611328125" lon="168.63970379345118999481201171875">
        <ele>569.20001220703125</ele>
        <time>2026-10-06T22:27:39.000Z</time>
        <extensions>
          <ns3:TrackPointExtension>
            <ns3:hr>112</ns3:hr>
          </ns3:TrackPointExtension>
        </extensions>
      </trkpt>
      <trkpt lat="-45.03117062151432037353515625" lon="168.63974067382514476776123046875">
        <ele>567.5999755859375</ele>
        <time>2026-10-06T22:27:41.000Z</time>
        <extensions>
          <ns3:TrackPointExtension>
            <ns3:hr>113</ns3:hr>
          </ns3:TrackPointExtension>
        </extensions>
      </trkpt>
      <trkpt lat="-45.03130196593701839447021484375" lon="168.63981359638273715972900390625">
        <ele>566.5999755859375</ele>
        <time>2026-10-06T22:27:43.000Z</time>
        <extensions>
          <ns3:TrackPointExtension>
            <ns3:hr>113</ns3:hr>
          </ns3:TrackPointExtension>
        </extensions>
      </trkpt>
      <trkpt lat="-45.03143004141747951507568359375" lon="168.63989531993865966796875">
        <ele>564.4000244140625</ele>
        <time>2026-10-06T22:27:45.000Z</time>
        <extensions>
          <ns3:TrackPointExtension>
            <ns3:hr>114</ns3:hr>
          </ns3:TrackPointExtension>
        </extensions>
      </trkpt>
      <trkpt lat="-45.0315724499523639678955078125" lon="168.639988861978054046630859375">
        <ele>562.79998779296875</ele>
        <time>2026-10-06T22:27:47.000Z</time>
        <extensions>
          <ns3:TrackPointExtension>
            <ns3:hr>114</ns3:hr>
          </ns3:TrackPointExtension>
        </extensions>
      </trkpt>
      <trkpt lat="-45.03168669529259204864501953125" lon="168.6401415802538394927978515625">
        <ele>561</ele>
        <time>2026-10-06T22:27:49.000Z</time>
        <extensions>
          <ns3:TrackPointExtension>
            <ns3:hr>113</ns3:hr>
          </ns3:TrackPointExtension>
        </extensions>
      </trkpt>
      <trkpt lat="-45.03173598088324069976806640625" lon="168.640226237475872039794921875">
        <ele>560.4000244140625</ele>
        <time>2026-10-06T22:27:50.000Z</time>
        <extensions>
          <ns3:TrackPointExtension>
            <ns3:hr>113</ns3:hr>
          </ns3:TrackPointExtension>
        </extensions>
      </trkpt>
      <trkpt lat="-45.03178325481712818145751953125" lon="168.64028214477002620697021484375">
        <ele>559.5999755859375</ele>
        <time>2026-10-06T22:27:51.000Z</time>
        <extensions>
          <ns3:TrackPointExtension>
            <ns3:hr>113</ns3:hr>
          </ns3:TrackPointExtension>
        </extensions>
      </trkpt>
      <trkpt lat="-45.03189154900610446929931640625" lon="168.64041441120207309722900390625">
        <ele>557.79998779296875</ele>
        <time>2026-10-06T22:27:53.000Z</time>
        <extensions>
          <ns3:TrackPointExtension>
            <ns3:hr>112</ns3:hr>
          </ns3:TrackPointExtension>
        </extensions>
      </trkpt>
      <trkpt lat="-45.03193044103682041168212890625" lon="168.64049269817769527435302734375">
        <ele>557.4000244140625</ele>
        <time>2026-10-06T22:27:54.000Z</time>
        <extensions>
          <ns3:TrackPointExtension>
            <ns3:hr>112</ns3:hr>
          </ns3:TrackPointExtension>
        </extensions>
      </trkpt>
      <trkpt lat="-45.03195575438439846038818359375" lon="168.64058104343712329864501953125">
        <ele>556.5999755859375</ele>
        <time>2026-10-06T22:27:56.000Z</time>
        <extensions>
          <ns3:TrackPointExtension>
            <ns3:hr>112</ns3:hr>
          </ns3:TrackPointExtension>
        </extensions>
      </trkpt>
      <trkpt lat="-45.03197000361979007720947265625" lon="168.64054935984313488006591796875">
        <ele>556.5999755859375</ele>
        <time>2026-10-06T22:27:57.000Z</time>
        <extensions>
          <ns3:TrackPointExtension>
            <ns3:hr>112</ns3:hr>
          </ns3:TrackPointExtension>
        </extensions>
      </trkpt>
      <trkpt lat="-45.03196581266820430755615234375" lon="168.64049051888287067413330078125">
        <ele>556.20001220703125</ele>
        <time>2026-10-06T22:27:58.000Z</time>
        <extensions>
          <ns3:TrackPointExtension>
            <ns3:hr>112</ns3:hr>
          </ns3:TrackPointExtension>
        </extensions>
      </trkpt>
      <trkpt lat="-45.03194686956703662872314453125" lon="168.6404262296855449676513671875">
        <ele>555.20001220703125</ele>
        <time>2026-10-06T22:27:59.000Z</time>
        <extensions>
          <ns3:TrackPointExtension>
            <ns3:hr>113</ns3:hr>
          </ns3:TrackPointExtension>
        </extensions>
      </trkpt>
      <trkpt lat="-45.0319244898855686187744140625" lon="168.64034182392060756683349609375">
        <ele>554.20001220703125</ele>
        <time>2026-10-06T22:28:00.000Z</time>
        <extensions>
          <ns3:TrackPointExtension>
            <ns3:hr>113</ns3:hr>
          </ns3:TrackPointExtension>
        </extensions>
      </trkpt>
      <trkpt lat="-45.03190554678440093994140625" lon="168.6402304284274578094482421875">
        <ele>552.20001220703125</ele>
        <time>2026-10-06T22:28:01.000Z</time>
        <extensions>
          <ns3:TrackPointExtension>
            <ns3:hr>115</ns3:hr>
          </ns3:TrackPointExtension>
        </extensions>
      </trkpt>
      <trkpt lat="-45.03187679685652256011962890625" lon="168.64012590609490871429443359375">
        <ele>550.79998779296875</ele>
        <time>2026-10-06T22:28:02.000Z</time>
        <extensions>
          <ns3:TrackPointExtension>
            <ns3:hr>116</ns3:hr>
          </ns3:TrackPointExtension>
        </extensions>
      </trkpt>
      <trkpt lat="-45.03183849155902862548828125" lon="168.6400212161242961883544921875">
        <ele>549.79998779296875</ele>
        <time>2026-10-06T22:28:03.000Z</time>
        <extensions>
          <ns3:TrackPointExtension>
            <ns3:hr>117</ns3:hr>
          </ns3:TrackPointExtension>
        </extensions>
      </trkpt>
      <trkpt lat="-45.0318001024425029754638671875" lon="168.63992993719875812530517578125">
        <ele>549</ele>
        <time>2026-10-06T22:28:04.000Z</time>
        <extensions>
          <ns3:TrackPointExtension>
            <ns3:hr>119</ns3:hr>
          </ns3:TrackPointExtension>
        </extensions>
      </trkpt>
      <trkpt lat="-45.03174888901412487030029296875" lon="168.63984058611094951629638671875">
        <ele>548.4000244140625</ele>
        <time>2026-10-06T22:28:05.000Z</time>
        <extensions>
          <ns3:TrackPointExtension>
            <ns3:hr>120</ns3:hr>
          </ns3:TrackPointExtension>
        </extensions>
      </trkpt>
      <trkpt lat="-45.03167579881846904754638671875" lon="168.63975391723215579986572265625">
        <ele>548</ele>
        <time>2026-10-06T22:28:06.000Z</time>
        <extensions>
          <ns3:TrackPointExtension>
            <ns3:hr>120</ns3:hr>
          </ns3:TrackPointExtension>
        </extensions>
      </trkpt>
      <trkpt lat="-45.03159767948091030120849609375" lon="168.63969155587255954742431640625">
        <ele>547.20001220703125</ele>
        <time>2026-10-06T22:28:07.000Z</time>
        <extensions>
          <ns3:TrackPointExtension>
            <ns3:hr>120</ns3:hr>
          </ns3:TrackPointExtension>
        </extensions>
      </trkpt>
      <trkpt lat="-45.03153028897941112518310546875" lon="168.6396282725036144256591796875">
        <ele>546.5999755859375</ele>
        <time>2026-10-06T22:28:08.000Z</time>
        <extensions>
          <ns3:TrackPointExtension>
            <ns3:hr>120</ns3:hr>
          </ns3:TrackPointExtension>
        </extensions>
      </trkpt>
      <trkpt lat="-45.03149407915771007537841796875" lon="168.63954772241413593292236328125">
        <ele>545.79998779296875</ele>
        <time>2026-10-06T22:28:09.000Z</time>
        <extensions>
          <ns3:TrackPointExtension>
            <ns3:hr>120</ns3:hr>
          </ns3:TrackPointExtension>
        </extensions>
      </trkpt>
      <trkpt lat="-45.0314996950328350067138671875" lon="168.63947111181914806365966796875">
        <ele>545.20001220703125</ele>
        <time>2026-10-06T22:28:10.000Z</time>
        <extensions>
          <ns3:TrackPointExtension>
            <ns3:hr>120</ns3:hr>
          </ns3:TrackPointExtension>
        </extensions>
      </trkpt>
      <trkpt lat="-45.0315348990261554718017578125" lon="168.63943691365420818328857421875">
        <ele>544.79998779296875</ele>
        <time>2026-10-06T22:28:11.000Z</time>
        <extensions>
          <ns3:TrackPointExtension>
            <ns3:hr>120</ns3:hr>
          </ns3:TrackPointExtension>
        </extensions>
      </trkpt>
      <trkpt lat="-45.0315751321613788604736328125" lon="168.63948351703584194183349609375">
        <ele>544.5999755859375</ele>
        <time>2026-10-06T22:28:12.000Z</time>
        <extensions>
          <ns3:TrackPointExtension>
            <ns3:hr>119</ns3:hr>
          </ns3:TrackPointExtension>
        </extensions>
      </trkpt>
      <trkpt lat="-45.0316140241920948028564453125" lon="168.63954034633934497833251953125">
        <ele>543.79998779296875</ele>
        <time>2026-10-06T22:28:13.000Z</time>
        <extensions>
          <ns3:TrackPointExtension>
            <ns3:hr>120</ns3:hr>
          </ns3:TrackPointExtension>
        </extensions>
      </trkpt>
      <trkpt lat="-45.03165769390761852264404296875" lon="168.63957823254168033599853515625">
        <ele>543</ele>
        <time>2026-10-06T22:28:14.000Z</time>
        <extensions>
          <ns3:TrackPointExtension>
            <ns3:hr>120</ns3:hr>
          </ns3:TrackPointExtension>
        </extensions>
      </trkpt>
      <trkpt lat="-45.0316975079476833343505859375" lon="168.639600612223148345947265625">
        <ele>542</ele>
        <time>2026-10-06T22:28:15.000Z</time>
        <extensions>
          <ns3:TrackPointExtension>
            <ns3:hr>120</ns3:hr>
          </ns3:TrackPointExtension>
        </extensions>
      </trkpt>
      <trkpt lat="-45.03176347352564334869384765625" lon="168.639669008553028106689453125">
        <ele>540.79998779296875</ele>
        <time>2026-10-06T22:28:17.000Z</time>
        <extensions>
          <ns3:TrackPointExtension>
            <ns3:hr>119</ns3:hr>
          </ns3:TrackPointExtension>
        </extensions>
      </trkpt>
      <trkpt lat="-45.03185651265084743499755859375" lon="168.6397670768201351165771484375">
        <ele>539.20001220703125</ele>
        <time>2026-10-06T22:28:19.000Z</time>
        <extensions>
          <ns3:TrackPointExtension>
            <ns3:hr>118</ns3:hr>
          </ns3:TrackPointExtension>
        </extensions>
      </trkpt>
      <trkpt lat="-45.0319560058414936065673828125" lon="168.63989087752997875213623046875">
        <ele>537.5999755859375</ele>
        <time>2026-10-06T22:28:21.000Z</time>
        <extensions>
          <ns3:TrackPointExtension>
            <ns3:hr>118</ns3:hr>
          </ns3:TrackPointExtension>
        </extensions>
      </trkpt>
      <trkpt lat="-45.0320126675069332122802734375" lon="168.63996782340109348297119140625">
        <ele>536.5999755859375</ele>
        <time>2026-10-06T22:28:22.000Z</time>
        <extensions>
          <ns3:TrackPointExtension>
            <ns3:hr>118</ns3:hr>
          </ns3:TrackPointExtension>
        </extensions>
      </trkpt>
      <trkpt lat="-45.03207209520041942596435546875" lon="168.6400483734905719757080078125">
        <ele>535.5999755859375</ele>
        <time>2026-10-06T22:28:23.000Z</time>
        <extensions>
          <ns3:TrackPointExtension>
            <ns3:hr>118</ns3:hr>
          </ns3:TrackPointExtension>
        </extensions>
      </trkpt>
      <trkpt lat="-45.03211207687854766845703125" lon="168.6401315219700336456298828125">
        <ele>534.79998779296875</ele>
        <time>2026-10-06T22:28:24.000Z</time>
        <extensions>
          <ns3:TrackPointExtension>
            <ns3:hr>118</ns3:hr>
          </ns3:TrackPointExtension>
        </extensions>
      </trkpt>
      <trkpt lat="-45.03215457312762737274169921875" lon="168.640214502811431884765625">
        <ele>534.20001220703125</ele>
        <time>2026-10-06T22:28:25.000Z</time>
        <extensions>
          <ns3:TrackPointExtension>
            <ns3:hr>119</ns3:hr>
          </ns3:TrackPointExtension>
        </extensions>
      </trkpt>
      <trkpt lat="-45.03219388425350189208984375" lon="168.64027912728488445281982421875">
        <ele>534</ele>
        <time>2026-10-06T22:28:26.000Z</time>
        <extensions>
          <ns3:TrackPointExtension>
            <ns3:hr>119</ns3:hr>
          </ns3:TrackPointExtension>
        </extensions>
      </trkpt>
      <trkpt lat="-45.0323241390287876129150390625" lon="168.64040871150791645050048828125">
        <ele>535</ele>
        <time>2026-10-06T22:28:29.000Z</time>
        <extensions>
          <ns3:TrackPointExtension>
            <ns3:hr>120</ns3:hr>
          </ns3:TrackPointExtension>
        </extensions>
      </trkpt>
      <trkpt lat="-45.03236965276300907135009765625" lon="168.6404493637382984161376953125">
        <ele>534.5999755859375</ele>
        <time>2026-10-06T22:28:30.000Z</time>
        <extensions>
          <ns3:TrackPointExtension>
            <ns3:hr>120</ns3:hr>
          </ns3:TrackPointExtension>
        </extensions>
      </trkpt>
      <trkpt lat="-45.03251968882977962493896484375" lon="168.6404993198812007904052734375">
        <ele>532.5999755859375</ele>
        <time>2026-10-06T22:28:33.000Z</time>
        <extensions>
          <ns3:TrackPointExtension>
            <ns3:hr>119</ns3:hr>
          </ns3:TrackPointExtension>
        </extensions>
      </trkpt>
      <trkpt lat="-45.03257249481976032257080078125" lon="168.64054332487285137176513671875">
        <ele>531.5999755859375</ele>
        <time>2026-10-06T22:28:34.000Z</time>
        <extensions>
          <ns3:TrackPointExtension>
            <ns3:hr>119</ns3:hr>
          </ns3:TrackPointExtension>
        </extensions>
      </trkpt>
      <trkpt lat="-45.0326902605593204498291015625" lon="168.640615828335285186767578125">
        <ele>529.5999755859375</ele>
        <time>2026-10-06T22:28:36.000Z</time>
        <extensions>
          <ns3:TrackPointExtension>
            <ns3:hr>120</ns3:hr>
          </ns3:TrackPointExtension>
        </extensions>
      </trkpt>
      <trkpt lat="-45.0327596627175807952880859375" lon="168.6406394653022289276123046875">
        <ele>528.79998779296875</ele>
        <time>2026-10-06T22:28:37.000Z</time>
        <extensions>
          <ns3:TrackPointExtension>
            <ns3:hr>118</ns3:hr>
          </ns3:TrackPointExtension>
        </extensions>
      </trkpt>
      <trkpt lat="-45.03283635713160037994384765625" lon="168.6406612582504749298095703125">
        <ele>527.5999755859375</ele>
        <time>2026-10-06T22:28:38.000Z</time>
        <extensions>
          <ns3:TrackPointExtension>
            <ns3:hr>117</ns3:hr>
          </ns3:TrackPointExtension>
        </extensions>
      </trkpt>
      <trkpt lat="-45.03300525248050689697265625" lon="168.64068782888352870941162109375">
        <ele>525</ele>
        <time>2026-10-06T22:28:40.000Z</time>
        <extensions>
          <ns3:TrackPointExtension>
            <ns3:hr>116</ns3:hr>
          </ns3:TrackPointExtension>
        </extensions>
      </trkpt>
      <trkpt lat="-45.03309703432023525238037109375" lon="168.6406803689897060394287109375">
        <ele>522.79998779296875</ele>
        <time>2026-10-06T22:28:41.000Z</time>
        <extensions>
          <ns3:TrackPointExtension>
            <ns3:hr>117</ns3:hr>
          </ns3:TrackPointExtension>
        </extensions>
      </trkpt>
      <trkpt lat="-45.03326701931655406951904296875" lon="168.64068414084613323211669921875">
        <ele>520.20001220703125</ele>
        <time>2026-10-06T22:28:43.000Z</time>
        <extensions>
          <ns3:TrackPointExtension>
            <ns3:hr>118</ns3:hr>
          </ns3:TrackPointExtension>
        </extensions>
      </trkpt>
      <trkpt lat="-45.0333189032971858978271484375" lon="168.640697635710239410400390625">
        <ele>520.20001220703125</ele>
        <time>2026-10-06T22:28:44.000Z</time>
        <extensions>
          <ns3:TrackPointExtension>
            <ns3:hr>119</ns3:hr>
          </ns3:TrackPointExtension>
        </extensions>
      </trkpt>
      <trkpt lat="-45.033347569406032562255859375" lon="168.64070626907050609588623046875">
        <ele>520.5999755859375</ele>
        <time>2026-10-06T22:28:45.000Z</time>
        <extensions>
          <ns3:TrackPointExtension>
            <ns3:hr>122</ns3:hr>
          </ns3:TrackPointExtension>
        </extensions>
      </trkpt>
      <trkpt lat="-45.0333604775369167327880859375" lon="168.64071716554462909698486328125">
        <ele>521.5999755859375</ele>
        <time>2026-10-06T22:28:46.000Z</time>
        <extensions>
          <ns3:TrackPointExtension>
            <ns3:hr>124</ns3:hr>
          </ns3:TrackPointExtension>
        </extensions>
      </trkpt>
      <trkpt lat="-45.03336869180202484130859375" lon="168.64071968011558055877685546875">
        <ele>522.20001220703125</ele>
        <time>2026-10-06T22:28:47.000Z</time>
        <extensions>
          <ns3:TrackPointExtension>
            <ns3:hr>125</ns3:hr>
          </ns3:TrackPointExtension>
        </extensions>
      </trkpt>
      <trkpt lat="-45.0333681888878345489501953125" lon="168.6407239548861980438232421875">
        <ele>522.79998779296875</ele>
        <time>2026-10-06T22:28:48.000Z</time>
        <extensions>
          <ns3:TrackPointExtension>
            <ns3:hr>125</ns3:hr>
          </ns3:TrackPointExtension>
        </extensions>
      </trkpt>
      <trkpt lat="-45.0333681888878345489501953125" lon="168.6407239548861980438232421875">
        <ele>523</ele>
        <time>2026-10-06T22:28:55.000Z</time>
        <extensions>
          <ns3:TrackPointExtension>
            <ns3:hr>124</ns3:hr>
          </ns3:TrackPointExtension>
        </extensions>
      </trkpt>
      <trkpt lat="-45.0333577953279018402099609375" lon="168.640729486942291259765625">
        <ele>522.79998779296875</ele>
        <time>2026-10-06T22:28:59.000Z</time>
        <extensions>
          <ns3:TrackPointExtension>
            <ns3:hr>122</ns3:hr>
          </ns3:TrackPointExtension>
        </extensions>
      </trkpt>
      <trkpt lat="-45.033308006823062896728515625" lon="168.64075823687016963958740234375">
        <ele>522.4000244140625</ele>
        <time>2026-10-06T22:29:01.000Z</time>
        <extensions>
          <ns3:TrackPointExtension>
            <ns3:hr>116</ns3:hr>
          </ns3:TrackPointExtension>
        </extensions>
      </trkpt>
      <trkpt lat="-45.0332350842654705047607421875" lon="168.6408034153282642364501953125">
        <ele>521.4000244140625</ele>
        <time>2026-10-06T22:29:03.000Z</time>
        <extensions>
          <ns3:TrackPointExtension>
            <ns3:hr>114</ns3:hr>
          </ns3:TrackPointExtension>
        </extensions>
      </trkpt>
      <trkpt lat="-45.03318118862807750701904296875" lon="168.64082545973360538482666015625">
        <ele>520.5999755859375</ele>
        <time>2026-10-06T22:29:04.000Z</time>
        <extensions>
          <ns3:TrackPointExtension>
            <ns3:hr>114</ns3:hr>
          </ns3:TrackPointExtension>
        </extensions>
      </trkpt>
      <trkpt lat="-45.03313039429485797882080078125" lon="168.64085680805146694183349609375">
        <ele>519.79998779296875</ele>
        <time>2026-10-06T22:29:05.000Z</time>
        <extensions>
          <ns3:TrackPointExtension>
            <ns3:hr>114</ns3:hr>
          </ns3:TrackPointExtension>
        </extensions>
      </trkpt>
      <trkpt lat="-45.03309954889118671417236328125" lon="168.64091531373560428619384765625">
        <ele>519</ele>
        <time>2026-10-06T22:29:06.000Z</time>
        <extensions>
          <ns3:TrackPointExtension>
            <ns3:hr>113</ns3:hr>
          </ns3:TrackPointExtension>
        </extensions>
      </trkpt>
      <trkpt lat="-45.03307088278234004974365234375" lon="168.6409888230264186859130859375">
        <ele>518.20001220703125</ele>
        <time>2026-10-06T22:29:07.000Z</time>
        <extensions>
          <ns3:TrackPointExtension>
            <ns3:hr>114</ns3:hr>
          </ns3:TrackPointExtension>
        </extensions>
      </trkpt>
      <trkpt lat="-45.03298086114227771759033203125" lon="168.64107373170554637908935546875">
        <ele>517.20001220703125</ele>
        <time>2026-10-06T22:29:09.000Z</time>
        <extensions>
          <ns3:TrackPointExtension>
            <ns3:hr>113</ns3:hr>
          </ns3:TrackPointExtension>
        </extensions>
      </trkpt>
      <trkpt lat="-45.0329601578414440155029296875" lon="168.64114724099636077880859375">
        <ele>516.4000244140625</ele>
        <time>2026-10-06T22:29:11.000Z</time>
        <extensions>
          <ns3:TrackPointExtension>
            <ns3:hr>111</ns3:hr>
          </ns3:TrackPointExtension>
        </extensions>
      </trkpt>
      <trkpt lat="-45.0330081023275852203369140625" lon="168.641188144683837890625">
        <ele>515.79998779296875</ele>
        <time>2026-10-06T22:29:12.000Z</time>
        <extensions>
          <ns3:TrackPointExtension>
            <ns3:hr>107</ns3:hr>
          </ns3:TrackPointExtension>
        </extensions>
      </trkpt>
      <trkpt lat="-45.0330982916057109832763671875" lon="168.641144894063472747802734375">
        <ele>514.20001220703125</ele>
        <time>2026-10-06T22:29:14.000Z</time>
        <extensions>
          <ns3:TrackPointExtension>
            <ns3:hr>104</ns3:hr>
          </ns3:TrackPointExtension>
        </extensions>
      </trkpt>
      <trkpt lat="-45.03323256969451904296875" lon="168.64110524766147136688232421875">
        <ele>512.79998779296875</ele>
        <time>2026-10-06T22:29:16.000Z</time>
        <extensions>
          <ns3:TrackPointExtension>
            <ns3:hr>103</ns3:hr>
          </ns3:TrackPointExtension>
        </extensions>
      </trkpt>
      <trkpt lat="-45.03330155275762081146240234375" lon="168.6410821974277496337890625">
        <ele>511.600006103515625</ele>
        <time>2026-10-06T22:29:17.000Z</time>
        <extensions>
          <ns3:TrackPointExtension>
            <ns3:hr>103</ns3:hr>
          </ns3:TrackPointExtension>
        </extensions>
      </trkpt>
      <trkpt lat="-45.03346416167914867401123046875" lon="168.64103467203676700592041015625">
        <ele>510</ele>
        <time>2026-10-06T22:29:19.000Z</time>
        <extensions>
          <ns3:TrackPointExtension>
            <ns3:hr>104</ns3:hr>
          </ns3:TrackPointExtension>
        </extensions>
      </trkpt>
      <trkpt lat="-45.03353775478899478912353515625" lon="168.64100902341306209564208984375">
        <ele>508.600006103515625</ele>
        <time>2026-10-06T22:29:20.000Z</time>
        <extensions>
          <ns3:TrackPointExtension>
            <ns3:hr>104</ns3:hr>
          </ns3:TrackPointExtension>
        </extensions>
      </trkpt>
      <trkpt lat="-45.0335941649973392486572265625" lon="168.6409606598317623138427734375">
        <ele>507</ele>
        <time>2026-10-06T22:29:21.000Z</time>
        <extensions>
          <ns3:TrackPointExtension>
            <ns3:hr>105</ns3:hr>
          </ns3:TrackPointExtension>
        </extensions>
      </trkpt>
      <trkpt lat="-45.03363481722772121429443359375" lon="168.6409266293048858642578125">
        <ele>505.399993896484375</ele>
        <time>2026-10-06T22:29:22.000Z</time>
        <extensions>
          <ns3:TrackPointExtension>
            <ns3:hr>105</ns3:hr>
          </ns3:TrackPointExtension>
        </extensions>
      </trkpt>
      <trkpt lat="-45.03367069177329540252685546875" lon="168.64093559794127941131591796875">
        <ele>504.79998779296875</ele>
        <time>2026-10-06T22:29:23.000Z</time>
        <extensions>
          <ns3:TrackPointExtension>
            <ns3:hr>106</ns3:hr>
          </ns3:TrackPointExtension>
        </extensions>
      </trkpt>
      <trkpt lat="-45.033641271293163299560546875" lon="168.64099561236798763275146484375">
        <ele>504.20001220703125</ele>
        <time>2026-10-06T22:29:24.000Z</time>
        <extensions>
          <ns3:TrackPointExtension>
            <ns3:hr>106</ns3:hr>
          </ns3:TrackPointExtension>
        </extensions>
      </trkpt>
      <trkpt lat="-45.0335423648357391357421875" lon="168.641097284853458404541015625">
        <ele>503.20001220703125</ele>
        <time>2026-10-06T22:29:26.000Z</time>
        <extensions>
          <ns3:TrackPointExtension>
            <ns3:hr>106</ns3:hr>
          </ns3:TrackPointExtension>
        </extensions>
      </trkpt>
      <trkpt lat="-45.03348805010318756103515625" lon="168.64114145748317241668701171875">
        <ele>502.399993896484375</ele>
        <time>2026-10-06T22:29:27.000Z</time>
        <extensions>
          <ns3:TrackPointExtension>
            <ns3:hr>106</ns3:hr>
          </ns3:TrackPointExtension>
        </extensions>
      </trkpt>
      <trkpt lat="-45.0334372557699680328369140625" lon="168.641188144683837890625">
        <ele>501</ele>
        <time>2026-10-06T22:29:28.000Z</time>
        <extensions>
          <ns3:TrackPointExtension>
            <ns3:hr>106</ns3:hr>
          </ns3:TrackPointExtension>
        </extensions>
      </trkpt>
      <trkpt lat="-45.0333966873586177825927734375" lon="168.64124857820570468902587890625">
        <ele>500.20001220703125</ele>
        <time>2026-10-06T22:29:29.000Z</time>
        <extensions>
          <ns3:TrackPointExtension>
            <ns3:hr>107</ns3:hr>
          </ns3:TrackPointExtension>
        </extensions>
      </trkpt>
      <trkpt lat="-45.0333551131188869476318359375" lon="168.6413304693996906280517578125">
        <ele>499.79998779296875</ele>
        <time>2026-10-06T22:29:30.000Z</time>
        <extensions>
          <ns3:TrackPointExtension>
            <ns3:hr>107</ns3:hr>
          </ns3:TrackPointExtension>
        </extensions>
      </trkpt>
      <trkpt lat="-45.0333178974688053131103515625" lon="168.6414067447185516357421875">
        <ele>499.20001220703125</ele>
        <time>2026-10-06T22:29:31.000Z</time>
        <extensions>
          <ns3:TrackPointExtension>
            <ns3:hr>106</ns3:hr>
          </ns3:TrackPointExtension>
        </extensions>
      </trkpt>
      <trkpt lat="-45.033268444240093231201171875" lon="168.641459383070468902587890625">
        <ele>498.600006103515625</ele>
        <time>2026-10-06T22:29:32.000Z</time>
        <extensions>
          <ns3:TrackPointExtension>
            <ns3:hr>106</ns3:hr>
          </ns3:TrackPointExtension>
        </extensions>
      </trkpt>
      <trkpt lat="-45.0332216732203960418701171875" lon="168.64157262258231639862060546875">
        <ele>497.20001220703125</ele>
        <time>2026-10-06T22:29:34.000Z</time>
        <extensions>
          <ns3:TrackPointExtension>
            <ns3:hr>107</ns3:hr>
          </ns3:TrackPointExtension>
        </extensions>
      </trkpt>
      <trkpt lat="-45.03324321471154689788818359375" lon="168.64169231615960597991943359375">
        <ele>496.20001220703125</ele>
        <time>2026-10-06T22:29:36.000Z</time>
        <extensions>
          <ns3:TrackPointExtension>
            <ns3:hr>108</ns3:hr>
          </ns3:TrackPointExtension>
        </extensions>
      </trkpt>
      <trkpt lat="-45.03324505873024463653564453125" lon="168.6417492292821407318115234375">
        <ele>495.79998779296875</ele>
        <time>2026-10-06T22:29:37.000Z</time>
        <extensions>
          <ns3:TrackPointExtension>
            <ns3:hr>108</ns3:hr>
          </ns3:TrackPointExtension>
        </extensions>
      </trkpt>
      <trkpt lat="-45.03324405290186405181884765625" lon="168.641780912876129150390625">
        <ele>495.600006103515625</ele>
        <time>2026-10-06T22:29:38.000Z</time>
        <extensions>
          <ns3:TrackPointExtension>
            <ns3:hr>112</ns3:hr>
          </ns3:TrackPointExtension>
        </extensions>
      </trkpt>
      <trkpt lat="-45.03324522636830806732177734375" lon="168.64187437109649181365966796875">
        <ele>496.20001220703125</ele>
        <time>2026-10-06T22:29:40.000Z</time>
        <extensions>
          <ns3:TrackPointExtension>
            <ns3:hr>112</ns3:hr>
          </ns3:TrackPointExtension>
        </extensions>
      </trkpt>
      <trkpt lat="-45.0332344137132167816162109375" lon="168.64195047877728939056396484375">
        <ele>496.600006103515625</ele>
        <time>2026-10-06T22:29:41.000Z</time>
        <extensions>
          <ns3:TrackPointExtension>
            <ns3:hr>111</ns3:hr>
          </ns3:TrackPointExtension>
        </extensions>
      </trkpt>
      <trkpt lat="-45.0332126207649707794189453125" lon="168.64203211851418018341064453125">
        <ele>497</ele>
        <time>2026-10-06T22:29:42.000Z</time>
        <extensions>
          <ns3:TrackPointExtension>
            <ns3:hr>112</ns3:hr>
          </ns3:TrackPointExtension>
        </extensions>
      </trkpt>
      <trkpt lat="-45.03317783586680889129638671875" lon="168.642111159861087799072265625">
        <ele>495.600006103515625</ele>
        <time>2026-10-06T22:29:43.000Z</time>
        <extensions>
          <ns3:TrackPointExtension>
            <ns3:hr>113</ns3:hr>
          </ns3:TrackPointExtension>
        </extensions>
      </trkpt>
      <trkpt lat="-45.03318236209452152252197265625" lon="168.64217360503971576690673828125">
        <ele>493.79998779296875</ele>
        <time>2026-10-06T22:29:44.000Z</time>
        <extensions>
          <ns3:TrackPointExtension>
            <ns3:hr>114</ns3:hr>
          </ns3:TrackPointExtension>
        </extensions>
      </trkpt>
      <trkpt lat="-45.03321706317365169525146484375" lon="168.6421797238290309906005859375">
        <ele>492</ele>
        <time>2026-10-06T22:29:45.000Z</time>
        <extensions>
          <ns3:TrackPointExtension>
            <ns3:hr>117</ns3:hr>
          </ns3:TrackPointExtension>
        </extensions>
      </trkpt>
      <trkpt lat="-45.03330356441438198089599609375" lon="168.642153404653072357177734375">
        <ele>491.20001220703125</ele>
        <time>2026-10-06T22:29:47.000Z</time>
        <extensions>
          <ns3:TrackPointExtension>
            <ns3:hr>119</ns3:hr>
          </ns3:TrackPointExtension>
        </extensions>
      </trkpt>
      <trkpt lat="-45.03333491273224353790283203125" lon="168.6421830765902996063232421875">
        <ele>490.600006103515625</ele>
        <time>2026-10-06T22:29:48.000Z</time>
        <extensions>
          <ns3:TrackPointExtension>
            <ns3:hr>118</ns3:hr>
          </ns3:TrackPointExtension>
        </extensions>
      </trkpt>
      <trkpt lat="-45.033351592719554901123046875" lon="168.64224501885473728179931640625">
        <ele>489.79998779296875</ele>
        <time>2026-10-06T22:29:49.000Z</time>
        <extensions>
          <ns3:TrackPointExtension>
            <ns3:hr>117</ns3:hr>
          </ns3:TrackPointExtension>
        </extensions>
      </trkpt>
      <trkpt lat="-45.03338101319968700408935546875" lon="168.64225021563470363616943359375">
        <ele>489.20001220703125</ele>
        <time>2026-10-06T22:29:50.000Z</time>
        <extensions>
          <ns3:TrackPointExtension>
            <ns3:hr>116</ns3:hr>
          </ns3:TrackPointExtension>
        </extensions>
      </trkpt>
      <trkpt lat="-45.03341294825077056884765625" lon="168.642176873981952667236328125">
        <ele>487.79998779296875</ele>
        <time>2026-10-06T22:29:52.000Z</time>
        <extensions>
          <ns3:TrackPointExtension>
            <ns3:hr>113</ns3:hr>
          </ns3:TrackPointExtension>
        </extensions>
      </trkpt>
      <trkpt lat="-45.03342996351420879364013671875" lon="168.64214234054088592529296875">
        <ele>487.600006103515625</ele>
        <time>2026-10-06T22:29:53.000Z</time>
        <extensions>
          <ns3:TrackPointExtension>
            <ns3:hr>114</ns3:hr>
          </ns3:TrackPointExtension>
        </extensions>
      </trkpt>
      <trkpt lat="-45.03349232487380504608154296875" lon="168.64205516874790191650390625">
        <ele>486.79998779296875</ele>
        <time>2026-10-06T22:29:55.000Z</time>
        <extensions>
          <ns3:TrackPointExtension>
            <ns3:hr>115</ns3:hr>
          </ns3:TrackPointExtension>
        </extensions>
      </trkpt>
      <trkpt lat="-45.03352249972522258758544921875" lon="168.641972355544567108154296875">
        <ele>486.399993896484375</ele>
        <time>2026-10-06T22:29:56.000Z</time>
        <extensions>
          <ns3:TrackPointExtension>
            <ns3:hr>116</ns3:hr>
          </ns3:TrackPointExtension>
        </extensions>
      </trkpt>
      <trkpt lat="-45.0335147045552730560302734375" lon="168.641909323632717132568359375">
        <ele>485.79998779296875</ele>
        <time>2026-10-06T22:29:57.000Z</time>
        <extensions>
          <ns3:TrackPointExtension>
            <ns3:hr>118</ns3:hr>
          </ns3:TrackPointExtension>
        </extensions>
      </trkpt>
      <trkpt lat="-45.03349618054926395416259765625" lon="168.64185308106243610382080078125">
        <ele>485</ele>
        <time>2026-10-06T22:29:58.000Z</time>
        <extensions>
          <ns3:TrackPointExtension>
            <ns3:hr>120</ns3:hr>
          </ns3:TrackPointExtension>
        </extensions>
      </trkpt>
      <trkpt lat="-45.03348511643707752227783203125" lon="168.64176205359399318695068359375">
        <ele>484.600006103515625</ele>
        <time>2026-10-06T22:30:00.000Z</time>
        <extensions>
          <ns3:TrackPointExtension>
            <ns3:hr>120</ns3:hr>
          </ns3:TrackPointExtension>
        </extensions>
      </trkpt>
      <trkpt lat="-45.03353741951286792755126953125" lon="168.64160187542438507080078125">
        <ele>484.20001220703125</ele>
        <time>2026-10-06T22:30:03.000Z</time>
        <extensions>
          <ns3:TrackPointExtension>
            <ns3:hr>117</ns3:hr>
          </ns3:TrackPointExtension>
        </extensions>
      </trkpt>
      <trkpt lat="-45.03359206952154636383056640625" lon="168.64157496951520442962646484375">
        <ele>483.600006103515625</ele>
        <time>2026-10-06T22:30:04.000Z</time>
        <extensions>
          <ns3:TrackPointExtension>
            <ns3:hr>116</ns3:hr>
          </ns3:TrackPointExtension>
        </extensions>
      </trkpt>
      <trkpt lat="-45.03369860351085662841796875" lon="168.64157346077263355255126953125">
        <ele>482.20001220703125</ele>
        <time>2026-10-06T22:30:06.000Z</time>
        <extensions>
          <ns3:TrackPointExtension>
            <ns3:hr>116</ns3:hr>
          </ns3:TrackPointExtension>
        </extensions>
      </trkpt>
      <trkpt lat="-45.03374143503606319427490234375" lon="168.6415343172848224639892578125">
        <ele>481.600006103515625</ele>
        <time>2026-10-06T22:30:07.000Z</time>
        <extensions>
          <ns3:TrackPointExtension>
            <ns3:hr>116</ns3:hr>
          </ns3:TrackPointExtension>
        </extensions>
      </trkpt>
      <trkpt lat="-45.03378066234290599822998046875" lon="168.6414867080748081207275390625">
        <ele>481</ele>
        <time>2026-10-06T22:30:08.000Z</time>
        <extensions>
          <ns3:TrackPointExtension>
            <ns3:hr>116</ns3:hr>
          </ns3:TrackPointExtension>
        </extensions>
      </trkpt>
      <trkpt lat="-45.0337966717779636383056640625" lon="168.64151109941303730010986328125">
        <ele>480.20001220703125</ele>
        <time>2026-10-06T22:30:09.000Z</time>
        <extensions>
          <ns3:TrackPointExtension>
            <ns3:hr>117</ns3:hr>
          </ns3:TrackPointExtension>
        </extensions>
      </trkpt>
      <trkpt lat="-45.0337953306734561920166015625" lon="168.641539514064788818359375">
        <ele>479.600006103515625</ele>
        <time>2026-10-06T22:30:10.000Z</time>
        <extensions>
          <ns3:TrackPointExtension>
            <ns3:hr>115</ns3:hr>
          </ns3:TrackPointExtension>
        </extensions>
      </trkpt>
      <trkpt lat="-45.0337247550487518310546875" lon="168.64157295785844326019287109375">
        <ele>478</ele>
        <time>2026-10-06T22:30:12.000Z</time>
        <extensions>
          <ns3:TrackPointExtension>
            <ns3:hr>113</ns3:hr>
          </ns3:TrackPointExtension>
        </extensions>
      </trkpt>
      <trkpt lat="-45.03369583748281002044677734375" lon="168.64159860648214817047119140625">
        <ele>477.20001220703125</ele>
        <time>2026-10-06T22:30:13.000Z</time>
        <extensions>
          <ns3:TrackPointExtension>
            <ns3:hr>111</ns3:hr>
          </ns3:TrackPointExtension>
        </extensions>
      </trkpt>
      <trkpt lat="-45.033691227436065673828125" lon="168.6416422761976718902587890625">
        <ele>476.399993896484375</ele>
        <time>2026-10-06T22:30:14.000Z</time>
        <extensions>
          <ns3:TrackPointExtension>
            <ns3:hr>109</ns3:hr>
          </ns3:TrackPointExtension>
        </extensions>
      </trkpt>
      <trkpt lat="-45.033744536340236663818359375" lon="168.6417742073535919189453125">
        <ele>475</ele>
        <time>2026-10-06T22:30:16.000Z</time>
        <extensions>
          <ns3:TrackPointExtension>
            <ns3:hr>108</ns3:hr>
          </ns3:TrackPointExtension>
        </extensions>
      </trkpt>
      <trkpt lat="-45.0337923131883144378662109375" lon="168.64196841605007648468017578125">
        <ele>473.399993896484375</ele>
        <time>2026-10-06T22:30:18.000Z</time>
        <extensions>
          <ns3:TrackPointExtension>
            <ns3:hr>111</ns3:hr>
          </ns3:TrackPointExtension>
        </extensions>
      </trkpt>
      <trkpt lat="-45.03379424102604389190673828125" lon="168.64206749014556407928466796875">
        <ele>472.399993896484375</ele>
        <time>2026-10-06T22:30:19.000Z</time>
        <extensions>
          <ns3:TrackPointExtension>
            <ns3:hr>112</ns3:hr>
          </ns3:TrackPointExtension>
        </extensions>
      </trkpt>
      <trkpt lat="-45.033774040639400482177734375" lon="168.64217528142035007476806640625">
        <ele>471.600006103515625</ele>
        <time>2026-10-06T22:30:20.000Z</time>
        <extensions>
          <ns3:TrackPointExtension>
            <ns3:hr>115</ns3:hr>
          </ns3:TrackPointExtension>
        </extensions>
      </trkpt>
      <trkpt lat="-45.0337400101125240325927734375" lon="168.64228206686675548553466796875">
        <ele>470.600006103515625</ele>
        <time>2026-10-06T22:30:21.000Z</time>
        <extensions>
          <ns3:TrackPointExtension>
            <ns3:hr>118</ns3:hr>
          </ns3:TrackPointExtension>
        </extensions>
      </trkpt>
      <trkpt lat="-45.03366683609783649444580078125" lon="168.6423694901168346405029296875">
        <ele>470.20001220703125</ele>
        <time>2026-10-06T22:30:22.000Z</time>
        <extensions>
          <ns3:TrackPointExtension>
            <ns3:hr>118</ns3:hr>
          </ns3:TrackPointExtension>
        </extensions>
      </trkpt>
      <trkpt lat="-45.0336055643856525421142578125" lon="168.64243528805673122406005859375">
        <ele>470</ele>
        <time>2026-10-06T22:30:23.000Z</time>
        <extensions>
          <ns3:TrackPointExtension>
            <ns3:hr>118</ns3:hr>
          </ns3:TrackPointExtension>
        </extensions>
      </trkpt>
      <trkpt lat="-45.0335271097719669342041015625" lon="168.64257560111582279205322265625">
        <ele>469.399993896484375</ele>
        <time>2026-10-06T22:30:25.000Z</time>
        <extensions>
          <ns3:TrackPointExtension>
            <ns3:hr>116</ns3:hr>
          </ns3:TrackPointExtension>
        </extensions>
      </trkpt>
      <trkpt lat="-45.03354596905410289764404296875" lon="168.64265170879662036895751953125">
        <ele>469.20001220703125</ele>
        <time>2026-10-06T22:30:26.000Z</time>
        <extensions>
          <ns3:TrackPointExtension>
            <ns3:hr>115</ns3:hr>
          </ns3:TrackPointExtension>
        </extensions>
      </trkpt>
      <trkpt lat="-45.0335837714374065399169921875" lon="168.642679788172245025634765625">
        <ele>468.600006103515625</ele>
        <time>2026-10-06T22:30:27.000Z</time>
        <extensions>
          <ns3:TrackPointExtension>
            <ns3:hr>114</ns3:hr>
          </ns3:TrackPointExtension>
        </extensions>
      </trkpt>
      <trkpt lat="-45.033630542457103729248046875" lon="168.64266947843134403228759765625">
        <ele>468</ele>
        <time>2026-10-06T22:30:28.000Z</time>
        <extensions>
          <ns3:TrackPointExtension>
            <ns3:hr>114</ns3:hr>
          </ns3:TrackPointExtension>
        </extensions>
      </trkpt>
      <trkpt lat="-45.0336820073425769805908203125" lon="168.64267199300229549407958984375">
        <ele>467.20001220703125</ele>
        <time>2026-10-06T22:30:29.000Z</time>
        <extensions>
          <ns3:TrackPointExtension>
            <ns3:hr>114</ns3:hr>
          </ns3:TrackPointExtension>
        </extensions>
      </trkpt>
      <trkpt lat="-45.03375953994691371917724609375" lon="168.6426538042724132537841796875">
        <ele>466</ele>
        <time>2026-10-06T22:30:31.000Z</time>
        <extensions>
          <ns3:TrackPointExtension>
            <ns3:hr>115</ns3:hr>
          </ns3:TrackPointExtension>
        </extensions>
      </trkpt>
      <trkpt lat="-45.0337661616504192352294921875" lon="168.6426942050457000732421875">
        <ele>465.399993896484375</ele>
        <time>2026-10-06T22:30:32.000Z</time>
        <extensions>
          <ns3:TrackPointExtension>
            <ns3:hr>115</ns3:hr>
          </ns3:TrackPointExtension>
        </extensions>
      </trkpt>
      <trkpt lat="-45.03376222215592861175537109375" lon="168.64274977706372737884521484375">
        <ele>464.79998779296875</ele>
        <time>2026-10-06T22:30:33.000Z</time>
        <extensions>
          <ns3:TrackPointExtension>
            <ns3:hr>116</ns3:hr>
          </ns3:TrackPointExtension>
        </extensions>
      </trkpt>
      <trkpt lat="-45.03377236425876617431640625" lon="168.642883636057376861572265625">
        <ele>463.600006103515625</ele>
        <time>2026-10-06T22:30:35.000Z</time>
        <extensions>
          <ns3:TrackPointExtension>
            <ns3:hr>119</ns3:hr>
          </ns3:TrackPointExtension>
        </extensions>
      </trkpt>
      <trkpt lat="-45.033782757818698883056640625" lon="168.643005676567554473876953125">
        <ele>463</ele>
        <time>2026-10-06T22:30:37.000Z</time>
        <extensions>
          <ns3:TrackPointExtension>
            <ns3:hr>120</ns3:hr>
          </ns3:TrackPointExtension>
        </extensions>
      </trkpt>
      <trkpt lat="-45.03382072784006595611572265625" lon="168.64292127080261707305908203125">
        <ele>462.600006103515625</ele>
        <time>2026-10-06T22:30:39.000Z</time>
        <extensions>
          <ns3:TrackPointExtension>
            <ns3:hr>121</ns3:hr>
          </ns3:TrackPointExtension>
        </extensions>
      </trkpt>
      <trkpt lat="-45.0338379107415676116943359375" lon="168.6428459174931049346923828125">
        <ele>462.20001220703125</ele>
        <time>2026-10-06T22:30:40.000Z</time>
        <extensions>
          <ns3:TrackPointExtension>
            <ns3:hr>122</ns3:hr>
          </ns3:TrackPointExtension>
        </extensions>
      </trkpt>
      <trkpt lat="-45.0339042954146862030029296875" lon="168.6427666246891021728515625">
        <ele>460.600006103515625</ele>
        <time>2026-10-06T22:30:42.000Z</time>
        <extensions>
          <ns3:TrackPointExtension>
            <ns3:hr>122</ns3:hr>
          </ns3:TrackPointExtension>
        </extensions>
      </trkpt>
      <trkpt lat="-45.0339274294674396514892578125" lon="168.642668388783931732177734375">
        <ele>459.20001220703125</ele>
        <time>2026-10-06T22:30:44.000Z</time>
        <extensions>
          <ns3:TrackPointExtension>
            <ns3:hr>124</ns3:hr>
          </ns3:TrackPointExtension>
        </extensions>
      </trkpt>
      <trkpt lat="-45.03391728736460208892822265625" lon="168.64258280955255031585693359375">
        <ele>458.399993896484375</ele>
        <time>2026-10-06T22:30:45.000Z</time>
        <extensions>
          <ns3:TrackPointExtension>
            <ns3:hr>124</ns3:hr>
          </ns3:TrackPointExtension>
        </extensions>
      </trkpt>
      <trkpt lat="-45.03394067287445068359375" lon="168.64252178929746150970458984375">
        <ele>458</ele>
        <time>2026-10-06T22:30:46.000Z</time>
        <extensions>
          <ns3:TrackPointExtension>
            <ns3:hr>122</ns3:hr>
          </ns3:TrackPointExtension>
        </extensions>
      </trkpt>
      <trkpt lat="-45.03400814719498157501220703125" lon="168.64239874295890331268310546875">
        <ele>457.20001220703125</ele>
        <time>2026-10-06T22:30:48.000Z</time>
        <extensions>
          <ns3:TrackPointExtension>
            <ns3:hr>124</ns3:hr>
          </ns3:TrackPointExtension>
        </extensions>
      </trkpt>
      <trkpt lat="-45.0340306945145130157470703125" lon="168.6423299275338649749755859375">
        <ele>456.79998779296875</ele>
        <time>2026-10-06T22:30:49.000Z</time>
        <extensions>
          <ns3:TrackPointExtension>
            <ns3:hr>123</ns3:hr>
          </ns3:TrackPointExtension>
        </extensions>
      </trkpt>
      <trkpt lat="-45.03405659459531307220458984375" lon="168.64226999692618846893310546875">
        <ele>456.20001220703125</ele>
        <time>2026-10-06T22:30:50.000Z</time>
        <extensions>
          <ns3:TrackPointExtension>
            <ns3:hr>115</ns3:hr>
          </ns3:TrackPointExtension>
        </extensions>
      </trkpt>
      <trkpt lat="-45.0340783037245273590087890625" lon="168.64224200136959552764892578125">
        <ele>455.79998779296875</ele>
        <time>2026-10-06T22:30:51.000Z</time>
        <extensions>
          <ns3:TrackPointExtension>
            <ns3:hr>111</ns3:hr>
          </ns3:TrackPointExtension>
        </extensions>
      </trkpt>
      <trkpt lat="-45.03409515134990215301513671875" lon="168.6422759480774402618408203125">
        <ele>455</ele>
        <time>2026-10-06T22:30:52.000Z</time>
        <extensions>
          <ns3:TrackPointExtension>
            <ns3:hr>111</ns3:hr>
          </ns3:TrackPointExtension>
        </extensions>
      </trkpt>
      <trkpt lat="-45.0340833328664302825927734375" lon="168.642370663583278656005859375">
        <ele>454</ele>
        <time>2026-10-06T22:30:54.000Z</time>
        <extensions>
          <ns3:TrackPointExtension>
            <ns3:hr>112</ns3:hr>
          </ns3:TrackPointExtension>
        </extensions>
      </trkpt>
      <trkpt lat="-45.03407000564038753509521484375" lon="168.64243872463703155517578125">
        <ele>453.399993896484375</ele>
        <time>2026-10-06T22:30:55.000Z</time>
        <extensions>
          <ns3:TrackPointExtension>
            <ns3:hr>111</ns3:hr>
          </ns3:TrackPointExtension>
        </extensions>
      </trkpt>
      <trkpt lat="-45.03406832925975322723388671875" lon="168.6425059475004673004150390625">
        <ele>452.79998779296875</ele>
        <time>2026-10-06T22:30:56.000Z</time>
        <extensions>
          <ns3:TrackPointExtension>
            <ns3:hr>111</ns3:hr>
          </ns3:TrackPointExtension>
        </extensions>
      </trkpt>
      <trkpt lat="-45.03409230150282382965087890625" lon="168.6426484398543834686279296875">
        <ele>451.600006103515625</ele>
        <time>2026-10-06T22:30:58.000Z</time>
        <extensions>
          <ns3:TrackPointExtension>
            <ns3:hr>111</ns3:hr>
          </ns3:TrackPointExtension>
        </extensions>
      </trkpt>
      <trkpt lat="-45.034105293452739715576171875" lon="168.6427211947739124298095703125">
        <ele>451.399993896484375</ele>
        <time>2026-10-06T22:30:59.000Z</time>
        <extensions>
          <ns3:TrackPointExtension>
            <ns3:hr>111</ns3:hr>
          </ns3:TrackPointExtension>
        </extensions>
      </trkpt>
      <trkpt lat="-45.0341192074120044708251953125" lon="168.64291573874652385711669921875">
        <ele>451.399993896484375</ele>
        <time>2026-10-06T22:31:03.000Z</time>
        <extensions>
          <ns3:TrackPointExtension>
            <ns3:hr>110</ns3:hr>
          </ns3:TrackPointExtension>
        </extensions>
      </trkpt>
      <trkpt lat="-45.03408324904739856719970703125" lon="168.64309963770210742950439453125">
        <ele>451.399993896484375</ele>
        <time>2026-10-06T22:31:06.000Z</time>
        <extensions>
          <ns3:TrackPointExtension>
            <ns3:hr>110</ns3:hr>
          </ns3:TrackPointExtension>
        </extensions>
      </trkpt>
      <trkpt lat="-45.03405257128179073333740234375" lon="168.643192090094089508056640625">
        <ele>450.79998779296875</ele>
        <time>2026-10-06T22:31:07.000Z</time>
        <extensions>
          <ns3:TrackPointExtension>
            <ns3:hr>112</ns3:hr>
          </ns3:TrackPointExtension>
        </extensions>
      </trkpt>
      <trkpt lat="-45.03402776084840297698974609375" lon="168.64327481947839260101318359375">
        <ele>449.600006103515625</ele>
        <time>2026-10-06T22:31:08.000Z</time>
        <extensions>
          <ns3:TrackPointExtension>
            <ns3:hr>112</ns3:hr>
          </ns3:TrackPointExtension>
        </extensions>
      </trkpt>
      <trkpt lat="-45.0340233184397220611572265625" lon="168.64335604012012481689453125">
        <ele>448.79998779296875</ele>
        <time>2026-10-06T22:31:09.000Z</time>
        <extensions>
          <ns3:TrackPointExtension>
            <ns3:hr>112</ns3:hr>
          </ns3:TrackPointExtension>
        </extensions>
      </trkpt>
      <trkpt lat="-45.034046284854412078857421875" lon="168.6433915793895721435546875">
        <ele>448</ele>
        <time>2026-10-06T22:31:10.000Z</time>
        <extensions>
          <ns3:TrackPointExtension>
            <ns3:hr>112</ns3:hr>
          </ns3:TrackPointExtension>
        </extensions>
      </trkpt>
      <trkpt lat="-45.03413102589547634124755859375" lon="168.643384538590908050537109375">
        <ele>447.20001220703125</ele>
        <time>2026-10-06T22:31:12.000Z</time>
        <extensions>
          <ns3:TrackPointExtension>
            <ns3:hr>110</ns3:hr>
          </ns3:TrackPointExtension>
        </extensions>
      </trkpt>
      <trkpt lat="-45.03417125903069972991943359375" lon="168.6434222571551799774169921875">
        <ele>446</ele>
        <time>2026-10-06T22:31:13.000Z</time>
        <extensions>
          <ns3:TrackPointExtension>
            <ns3:hr>110</ns3:hr>
          </ns3:TrackPointExtension>
        </extensions>
      </trkpt>
      <trkpt lat="-45.03419372253119945526123046875" lon="168.6434919945895671844482421875">
        <ele>445.20001220703125</ele>
        <time>2026-10-06T22:31:14.000Z</time>
        <extensions>
          <ns3:TrackPointExtension>
            <ns3:hr>109</ns3:hr>
          </ns3:TrackPointExtension>
        </extensions>
      </trkpt>
      <trkpt lat="-45.03421031869947910308837890625" lon="168.64357623271644115447998046875">
        <ele>444</ele>
        <time>2026-10-06T22:31:15.000Z</time>
        <extensions>
          <ns3:TrackPointExtension>
            <ns3:hr>109</ns3:hr>
          </ns3:TrackPointExtension>
        </extensions>
      </trkpt>
      <trkpt lat="-45.03422792069613933563232421875" lon="168.64367295987904071807861328125">
        <ele>442.600006103515625</ele>
        <time>2026-10-06T22:31:16.000Z</time>
        <extensions>
          <ns3:TrackPointExtension>
            <ns3:hr>109</ns3:hr>
          </ns3:TrackPointExtension>
        </extensions>
      </trkpt>
      <trkpt lat="-45.03421551547944545745849609375" lon="168.643758706748485565185546875">
        <ele>441.399993896484375</ele>
        <time>2026-10-06T22:31:17.000Z</time>
        <extensions>
          <ns3:TrackPointExtension>
            <ns3:hr>108</ns3:hr>
          </ns3:TrackPointExtension>
        </extensions>
      </trkpt>
      <trkpt lat="-45.0341668166220188140869140625" lon="168.643937408924102783203125">
        <ele>440</ele>
        <time>2026-10-06T22:31:20.000Z</time>
        <extensions>
          <ns3:TrackPointExtension>
            <ns3:hr>110</ns3:hr>
          </ns3:TrackPointExtension>
        </extensions>
      </trkpt>
      <trkpt lat="-45.034160278737545013427734375" lon="168.6441162787377834320068359375">
        <ele>439</ele>
        <time>2026-10-06T22:31:22.000Z</time>
        <extensions>
          <ns3:TrackPointExtension>
            <ns3:hr>110</ns3:hr>
          </ns3:TrackPointExtension>
        </extensions>
      </trkpt>
      <trkpt lat="-45.0341244041919708251953125" lon="168.64420051686465740203857421875">
        <ele>438.20001220703125</ele>
        <time>2026-10-06T22:31:23.000Z</time>
        <extensions>
          <ns3:TrackPointExtension>
            <ns3:hr>112</ns3:hr>
          </ns3:TrackPointExtension>
        </extensions>
      </trkpt>
      <trkpt lat="-45.0341158546507358551025390625" lon="168.6442768760025501251220703125">
        <ele>437.20001220703125</ele>
        <time>2026-10-06T22:31:24.000Z</time>
        <extensions>
          <ns3:TrackPointExtension>
            <ns3:hr>113</ns3:hr>
          </ns3:TrackPointExtension>
        </extensions>
      </trkpt>
      <trkpt lat="-45.03414376638829708099365234375" lon="168.6443546600639820098876953125">
        <ele>436</ele>
        <time>2026-10-06T22:31:25.000Z</time>
        <extensions>
          <ns3:TrackPointExtension>
            <ns3:hr>114</ns3:hr>
          </ns3:TrackPointExtension>
        </extensions>
      </trkpt>
      <trkpt lat="-45.03417360596358776092529296875" lon="168.6444532312452793121337890625">
        <ele>435.399993896484375</ele>
        <time>2026-10-06T22:31:26.000Z</time>
        <extensions>
          <ns3:TrackPointExtension>
            <ns3:hr>114</ns3:hr>
          </ns3:TrackPointExtension>
        </extensions>
      </trkpt>
      <trkpt lat="-45.0341741926968097686767578125" lon="168.6445591785013675689697265625">
        <ele>434.600006103515625</ele>
        <time>2026-10-06T22:31:27.000Z</time>
        <extensions>
          <ns3:TrackPointExtension>
            <ns3:hr>114</ns3:hr>
          </ns3:TrackPointExtension>
        </extensions>
      </trkpt>
      <trkpt lat="-45.03411845304071903228759765625" lon="168.64474140107631683349609375">
        <ele>433.600006103515625</ele>
        <time>2026-10-06T22:31:29.000Z</time>
        <extensions>
          <ns3:TrackPointExtension>
            <ns3:hr>114</ns3:hr>
          </ns3:TrackPointExtension>
        </extensions>
      </trkpt>
      <trkpt lat="-45.03408039920032024383544921875" lon="168.64481926895678043365478515625">
        <ele>433.399993896484375</ele>
        <time>2026-10-06T22:31:30.000Z</time>
        <extensions>
          <ns3:TrackPointExtension>
            <ns3:hr>114</ns3:hr>
          </ns3:TrackPointExtension>
        </extensions>
      </trkpt>
      <trkpt lat="-45.033971183001995086669921875" lon="168.6450912617146968841552734375">
        <ele>431.79998779296875</ele>
        <time>2026-10-06T22:31:33.000Z</time>
        <extensions>
          <ns3:TrackPointExtension>
            <ns3:hr>115</ns3:hr>
          </ns3:TrackPointExtension>
        </extensions>
      </trkpt>
      <trkpt lat="-45.03396187908947467803955078125" lon="168.64527775906026363372802734375">
        <ele>430.399993896484375</ele>
        <time>2026-10-06T22:31:35.000Z</time>
        <extensions>
          <ns3:TrackPointExtension>
            <ns3:hr>116</ns3:hr>
          </ns3:TrackPointExtension>
        </extensions>
      </trkpt>
      <trkpt lat="-45.0339948199689388275146484375" lon="168.64532754756510257720947265625">
        <ele>430.20001220703125</ele>
        <time>2026-10-06T22:31:36.000Z</time>
        <extensions>
          <ns3:TrackPointExtension>
            <ns3:hr>116</ns3:hr>
          </ns3:TrackPointExtension>
        </extensions>
      </trkpt>
      <trkpt lat="-45.03406598232686519622802734375" lon="168.6452565528452396392822265625">
        <ele>429.20001220703125</ele>
        <time>2026-10-06T22:31:38.000Z</time>
        <extensions>
          <ns3:TrackPointExtension>
            <ns3:hr>116</ns3:hr>
          </ns3:TrackPointExtension>
        </extensions>
      </trkpt>
      <trkpt lat="-45.03408442251384258270263671875" lon="168.64516141824424266815185546875">
        <ele>428.20001220703125</ele>
        <time>2026-10-06T22:31:39.000Z</time>
        <extensions>
          <ns3:TrackPointExtension>
            <ns3:hr>116</ns3:hr>
          </ns3:TrackPointExtension>
        </extensions>
      </trkpt>
      <trkpt lat="-45.03411811776459217071533203125" lon="168.6450612545013427734375">
        <ele>427.20001220703125</ele>
        <time>2026-10-06T22:31:40.000Z</time>
        <extensions>
          <ns3:TrackPointExtension>
            <ns3:hr>116</ns3:hr>
          </ns3:TrackPointExtension>
        </extensions>
      </trkpt>
      <trkpt lat="-45.03417746163904666900634765625" lon="168.6449705623090267181396484375">
        <ele>425.600006103515625</ele>
        <time>2026-10-06T22:31:41.000Z</time>
        <extensions>
          <ns3:TrackPointExtension>
            <ns3:hr>116</ns3:hr>
          </ns3:TrackPointExtension>
        </extensions>
      </trkpt>
      <trkpt lat="-45.0342285074293613433837890625" lon="168.64490493200719356536865234375">
        <ele>424.600006103515625</ele>
        <time>2026-10-06T22:31:42.000Z</time>
        <extensions>
          <ns3:TrackPointExtension>
            <ns3:hr>117</ns3:hr>
          </ns3:TrackPointExtension>
        </extensions>
      </trkpt>
      <trkpt lat="-45.0343215465545654296875" lon="168.64485765807330608367919921875">
        <ele>423</ele>
        <time>2026-10-06T22:31:44.000Z</time>
        <extensions>
          <ns3:TrackPointExtension>
            <ns3:hr>117</ns3:hr>
          </ns3:TrackPointExtension>
        </extensions>
      </trkpt>
      <trkpt lat="-45.0343602709472179412841796875" lon="168.645007945597171783447265625">
        <ele>421.399993896484375</ele>
        <time>2026-10-06T22:31:46.000Z</time>
        <extensions>
          <ns3:TrackPointExtension>
            <ns3:hr>118</ns3:hr>
          </ns3:TrackPointExtension>
        </extensions>
      </trkpt>
      <trkpt lat="-45.03432766534388065338134765625" lon="168.64520139992237091064453125">
        <ele>419</ele>
        <time>2026-10-06T22:31:48.000Z</time>
        <extensions>
          <ns3:TrackPointExtension>
            <ns3:hr>120</ns3:hr>
          </ns3:TrackPointExtension>
        </extensions>
      </trkpt>
      <trkpt lat="-45.03432816825807094573974609375" lon="168.64531178958714008331298828125">
        <ele>418</ele>
        <time>2026-10-06T22:31:49.000Z</time>
        <extensions>
          <ns3:TrackPointExtension>
            <ns3:hr>122</ns3:hr>
          </ns3:TrackPointExtension>
        </extensions>
      </trkpt>
      <trkpt lat="-45.03426228649914264678955078125" lon="168.64553122781217098236083984375">
        <ele>416.399993896484375</ele>
        <time>2026-10-06T22:31:51.000Z</time>
        <extensions>
          <ns3:TrackPointExtension>
            <ns3:hr>124</ns3:hr>
          </ns3:TrackPointExtension>
        </extensions>
      </trkpt>
      <trkpt lat="-45.03422339446842670440673828125" lon="168.645622842013835906982421875">
        <ele>415.79998779296875</ele>
        <time>2026-10-06T22:31:52.000Z</time>
        <extensions>
          <ns3:TrackPointExtension>
            <ns3:hr>125</ns3:hr>
          </ns3:TrackPointExtension>
        </extensions>
      </trkpt>
      <trkpt lat="-45.0342090614140033721923828125" lon="168.6457393504679203033447265625">
        <ele>415</ele>
        <time>2026-10-06T22:31:53.000Z</time>
        <extensions>
          <ns3:TrackPointExtension>
            <ns3:hr>127</ns3:hr>
          </ns3:TrackPointExtension>
        </extensions>
      </trkpt>
      <trkpt lat="-45.03419757820665836334228515625" lon="168.645842783153057098388671875">
        <ele>413.79998779296875</ele>
        <time>2026-10-06T22:31:54.000Z</time>
        <extensions>
          <ns3:TrackPointExtension>
            <ns3:hr>128</ns3:hr>
          </ns3:TrackPointExtension>
        </extensions>
      </trkpt>
      <trkpt lat="-45.034215934574604034423828125" lon="168.64592601545155048370361328125">
        <ele>413</ele>
        <time>2026-10-06T22:31:55.000Z</time>
        <extensions>
          <ns3:TrackPointExtension>
            <ns3:hr>128</ns3:hr>
          </ns3:TrackPointExtension>
        </extensions>
      </trkpt>
      <trkpt lat="-45.03423898480832576751708984375" lon="168.64600044675171375274658203125">
        <ele>412.600006103515625</ele>
        <time>2026-10-06T22:31:56.000Z</time>
        <extensions>
          <ns3:TrackPointExtension>
            <ns3:hr>129</ns3:hr>
          </ns3:TrackPointExtension>
        </extensions>
      </trkpt>
      <trkpt lat="-45.0342684052884578704833984375" lon="168.64622005261480808258056640625">
        <ele>411.399993896484375</ele>
        <time>2026-10-06T22:31:58.000Z</time>
        <extensions>
          <ns3:TrackPointExtension>
            <ns3:hr>130</ns3:hr>
          </ns3:TrackPointExtension>
        </extensions>
      </trkpt>
      <trkpt lat="-45.034259855747222900390625" lon="168.64642876200377941131591796875">
        <ele>409.79998779296875</ele>
        <time>2026-10-06T22:32:00.000Z</time>
        <extensions>
          <ns3:TrackPointExtension>
            <ns3:hr>131</ns3:hr>
          </ns3:TrackPointExtension>
        </extensions>
      </trkpt>
      <trkpt lat="-45.03422657959163188934326171875" lon="168.6465510539710521697998046875">
        <ele>408.20001220703125</ele>
        <time>2026-10-06T22:32:01.000Z</time>
        <extensions>
          <ns3:TrackPointExtension>
            <ns3:hr>132</ns3:hr>
          </ns3:TrackPointExtension>
        </extensions>
      </trkpt>
      <trkpt lat="-45.03418081440031528472900390625" lon="168.6466606892645359039306640625">
        <ele>407.20001220703125</ele>
        <time>2026-10-06T22:32:02.000Z</time>
        <extensions>
          <ns3:TrackPointExtension>
            <ns3:hr>132</ns3:hr>
          </ns3:TrackPointExtension>
        </extensions>
      </trkpt>
      <trkpt lat="-45.03411426208913326263427734375" lon="168.64690049551427364349365234375">
        <ele>405.399993896484375</ele>
        <time>2026-10-06T22:32:04.000Z</time>
        <extensions>
          <ns3:TrackPointExtension>
            <ns3:hr>132</ns3:hr>
          </ns3:TrackPointExtension>
        </extensions>
      </trkpt>
      <trkpt lat="-45.03405609168112277984619140625" lon="168.6471746675670146942138671875">
        <ele>402.79998779296875</ele>
        <time>2026-10-06T22:32:06.000Z</time>
        <extensions>
          <ns3:TrackPointExtension>
            <ns3:hr>133</ns3:hr>
          </ns3:TrackPointExtension>
        </extensions>
      </trkpt>
      <trkpt lat="-45.0340226478874683380126953125" lon="168.647296540439128875732421875">
        <ele>401.20001220703125</ele>
        <time>2026-10-06T22:32:07.000Z</time>
        <extensions>
          <ns3:TrackPointExtension>
            <ns3:hr>134</ns3:hr>
          </ns3:TrackPointExtension>
        </extensions>
      </trkpt>
      <trkpt lat="-45.03404234535992145538330078125" lon="168.647405840456485748291015625">
        <ele>400.399993896484375</ele>
        <time>2026-10-06T22:32:08.000Z</time>
        <extensions>
          <ns3:TrackPointExtension>
            <ns3:hr>134</ns3:hr>
          </ns3:TrackPointExtension>
        </extensions>
      </trkpt>
      <trkpt lat="-45.03405307419598102569580078125" lon="168.6475196667015552520751953125">
        <ele>399.600006103515625</ele>
        <time>2026-10-06T22:32:09.000Z</time>
        <extensions>
          <ns3:TrackPointExtension>
            <ns3:hr>134</ns3:hr>
          </ns3:TrackPointExtension>
        </extensions>
      </trkpt>
      <trkpt lat="-45.0340477935969829559326171875" lon="168.64760759286582469940185546875">
        <ele>399.399993896484375</ele>
        <time>2026-10-06T22:32:10.000Z</time>
        <extensions>
          <ns3:TrackPointExtension>
            <ns3:hr>134</ns3:hr>
          </ns3:TrackPointExtension>
        </extensions>
      </trkpt>
      <trkpt lat="-45.0340534932911396026611328125" lon="168.6476407013833522796630859375">
        <ele>399.399993896484375</ele>
        <time>2026-10-06T22:32:11.000Z</time>
        <extensions>
          <ns3:TrackPointExtension>
            <ns3:hr>134</ns3:hr>
          </ns3:TrackPointExtension>
        </extensions>
      </trkpt>
      <trkpt lat="-45.0340385735034942626953125" lon="168.647716306149959564208984375">
        <ele>399.20001220703125</ele>
        <time>2026-10-06T22:32:13.000Z</time>
        <extensions>
          <ns3:TrackPointExtension>
            <ns3:hr>134</ns3:hr>
          </ns3:TrackPointExtension>
        </extensions>
      </trkpt>
      <trkpt lat="-45.03402826376259326934814453125" lon="168.64777690730988979339599609375">
        <ele>399.600006103515625</ele>
        <time>2026-10-06T22:32:15.000Z</time>
        <extensions>
          <ns3:TrackPointExtension>
            <ns3:hr>134</ns3:hr>
          </ns3:TrackPointExtension>
        </extensions>
      </trkpt>
      <trkpt lat="-45.03403848968446254730224609375" lon="168.64789844490587711334228515625">
        <ele>398.79998779296875</ele>
        <time>2026-10-06T22:32:19.000Z</time>
        <extensions>
          <ns3:TrackPointExtension>
            <ns3:hr>133</ns3:hr>
          </ns3:TrackPointExtension>
        </extensions>
      </trkpt>
      <trkpt lat="-45.03403765149414539337158203125" lon="168.6478928290307521820068359375">
        <ele>398.79998779296875</ele>
        <time>2026-10-06T22:32:21.000Z</time>
        <extensions>
          <ns3:TrackPointExtension>
            <ns3:hr>128</ns3:hr>
          </ns3:TrackPointExtension>
        </extensions>
      </trkpt>
      <trkpt lat="-45.03403765149414539337158203125" lon="168.6478928290307521820068359375">
        <ele>398.79998779296875</ele>
        <time>2026-10-06T22:32:23.000Z</time>
        <extensions>
          <ns3:TrackPointExtension>
            <ns3:hr>125</ns3:hr>
          </ns3:TrackPointExtension>
        </extensions>
      </trkpt>
      <trkpt lat="-45.03403765149414539337158203125" lon="168.6478928290307521820068359375">
        <ele>398.79998779296875</ele>
        <time>2026-10-06T22:32:24.000Z</time>
        <extensions>
          <ns3:TrackPointExtension>
            <ns3:hr>126</ns3:hr>
          </ns3:TrackPointExtension>
        </extensions>
      </trkpt>
      <trkpt lat="-45.03403765149414539337158203125" lon="168.6478928290307521820068359375">
        <ele>399</ele>
        <time>2026-10-06T22:32:28.000Z</time>
        <extensions>
          <ns3:TrackPointExtension>
            <ns3:hr>128</ns3:hr>
          </ns3:TrackPointExtension>
        </extensions>
      </trkpt>
    </trkseg>
  </trk>
</gpx>
